{"type": "FeatureCollection", "features": [{"type": "Feature", "properties": {"resource_id": "REH-WP-0a627d59ccdba547fb36", "label": "Alcântara Machado", "node_name": "Alcântara Machado", "original_names": ["Alcântara Machado"], "normalized_name": "ALCANTARA_MACHADO", "network": "REH", "criterion": "reh_named_waypoint", "network_degree": 3, "altitude_m": null, "vertical_intervals_m": [[975.36, 975.36], [1005.84, 1036.3200000000002]], "altitude_status": "known_envelopes", "dimensions_m": null, "uam_route_ids": [], "reh_resource_ids": ["REH-113", "REH-126", "REH-194"], "uam_route_labels": [], "reh_labels": ["ACLIMAÇÃO - trecho 4", "MARTE - trecho 6", "Marte - trecho 5"], "status": "geometry_only_pending_recomputation", "method": "explicit_named_export_position", "name_group_id": "REH:ALCANTARA_MACHADO", "name_position_count": 1, "name_position_ids": ["REH-WP-0a627d59ccdba547fb36"], "grouping_rule": "name index only; exact coordinates/levels/dimensions remain independent; no analytical name total", "analysis_method_version": "reh-uam-junctions-v3", "capacity_eligible": true, "selection_reasons": [], "selection_rule": "reh_degree_at_least_3_distinct_undirected_edges_round6", "name_all_position_count": 1, "source": {"file": "CV_REH_XP_SAO_PAULO.xml", "sha256": "2e11d7bd59fafa426444132d2911ffae2b097de54da11e489bb48656fd59ef3b"}}, "geometry": {"type": "Point", "coordinates": [-46.6113888899999, -23.5527777799999]}}, {"type": "Feature", "properties": {"resource_id": "REH-WP-66c5260ef599f42adcf4", "label": "Avenida Morumbi", "node_name": "Avenida Morumbi", "original_names": ["Avenida Morumbi"], "normalized_name": "AVENIDA_MORUMBI", "network": "REH", "criterion": "reh_named_waypoint", "network_degree": 3, "altitude_m": null, "vertical_intervals_m": [[1005.84, 1036.3200000000002], [1036.3200000000002, 1066.8], [1036.3200000000002, 1097.28]], "altitude_status": "known_envelopes", "dimensions_m": null, "uam_route_ids": [], "reh_resource_ids": ["REH-202", "REH-203", "REH-204"], "uam_route_labels": [], "reh_labels": ["ESTÁDIO - trecho 1", "MORUMBI - trecho 1", "MORUMBI - trecho 2"], "status": "geometry_only_pending_recomputation", "method": "explicit_named_export_position", "name_group_id": "REH:AVENIDA_MORUMBI", "name_position_count": 1, "name_position_ids": ["REH-WP-66c5260ef599f42adcf4"], "grouping_rule": "name index only; exact coordinates/levels/dimensions remain independent; no analytical name total", "analysis_method_version": "reh-uam-junctions-v3", "capacity_eligible": true, "selection_reasons": [], "selection_rule": "reh_degree_at_least_3_distinct_undirected_edges_round6", "name_all_position_count": 1, "source": {"file": "CV_REH_XP_SAO_PAULO.xml", "sha256": "2e11d7bd59fafa426444132d2911ffae2b097de54da11e489bb48656fd59ef3b"}}, "geometry": {"type": "Point", "coordinates": [-46.71277778, -23.61166667]}}, {"type": "Feature", "properties": {"resource_id": "REH-WP-a390412db8d2951dc250", "label": "Brás", "node_name": "Brás", "original_names": ["Brás"], "normalized_name": "BRAS", "network": "REH", "criterion": "reh_named_waypoint", "network_degree": 4, "altitude_m": null, "vertical_intervals_m": [], "altitude_status": "unknown_or_invalid_envelope", "dimensions_m": null, "uam_route_ids": [], "reh_resource_ids": ["REH-130", "REH-183", "REH-188", "REH-194"], "uam_route_labels": [], "reh_labels": ["MARTE - trecho 4", "Marte - trecho 5", "Portão Brás - trecho 1", "RADIAL - trecho 1"], "status": "geometry_only_pending_recomputation", "method": "explicit_named_export_position", "name_group_id": "REH:BRAS", "name_position_count": 1, "name_position_ids": ["REH-WP-a390412db8d2951dc250"], "grouping_rule": "name index only; exact coordinates/levels/dimensions remain independent; no analytical name total", "analysis_method_version": "reh-uam-junctions-v3", "capacity_eligible": true, "selection_reasons": [], "selection_rule": "reh_degree_at_least_3_distinct_undirected_edges_round6", "name_all_position_count": 1, "source": {"file": "CV_REH_XP_SAO_PAULO.xml", "sha256": "2e11d7bd59fafa426444132d2911ffae2b097de54da11e489bb48656fd59ef3b"}}, "geometry": {"type": "Point", "coordinates": [-46.617222222, -23.543888889]}}, {"type": "Feature", "properties": {"resource_id": "REH-WP-1c5fd6543fef6083f7e8", "label": "Cebolão", "node_name": "Cebolão", "original_names": ["Cebolão"], "normalized_name": "CEBOLAO", "network": "REH", "criterion": "reh_named_waypoint", "network_degree": 4, "altitude_m": null, "vertical_intervals_m": [[975.36, 1005.84], [1005.84, 1005.84], [1036.3200000000002, 1036.3200000000002]], "altitude_status": "known_envelopes", "dimensions_m": null, "uam_route_ids": [], "reh_resource_ids": ["REH-128", "REH-167", "REH-181", "REH-198"], "uam_route_labels": [], "reh_labels": ["CASTELO - trecho 2", "MARTE - trecho 1", "OESTE - trecho 1", "PINHEIROS - trecho 1"], "status": "geometry_only_pending_recomputation", "method": "explicit_named_export_position", "name_group_id": "REH:CEBOLAO", "name_position_count": 1, "name_position_ids": ["REH-WP-1c5fd6543fef6083f7e8"], "grouping_rule": "name index only; exact coordinates/levels/dimensions remain independent; no analytical name total", "analysis_method_version": "reh-uam-junctions-v3", "capacity_eligible": true, "selection_reasons": [], "selection_rule": "reh_degree_at_least_3_distinct_undirected_edges_round6", "name_all_position_count": 1, "source": {"file": "CV_REH_XP_SAO_PAULO.xml", "sha256": "2e11d7bd59fafa426444132d2911ffae2b097de54da11e489bb48656fd59ef3b"}}, "geometry": {"type": "Point", "coordinates": [-46.75027778, -23.5261111099999]}}, {"type": "Feature", "properties": {"resource_id": "REH-WP-db16861257baeed3a737", "label": "Cebolinha", "node_name": "Cebolinha", "original_names": ["Cebolinha"], "normalized_name": "CEBOLINHA", "network": "REH", "criterion": "reh_named_waypoint", "network_degree": 3, "altitude_m": null, "vertical_intervals_m": [[1005.84, 1005.84], [1005.84, 1036.3200000000002]], "altitude_status": "known_envelopes", "dimensions_m": null, "uam_route_ids": [], "reh_resource_ids": ["REH-139", "REH-140", "REH-197"], "uam_route_labels": [], "reh_labels": ["ACLIMAÇÃO - trecho 1", "CONGONHAS - trecho 1", "CONGONHAS - trecho 2"], "status": "geometry_only_pending_recomputation", "method": "explicit_named_export_position", "name_group_id": "REH:CEBOLINHA", "name_position_count": 1, "name_position_ids": ["REH-WP-db16861257baeed3a737"], "grouping_rule": "name index only; exact coordinates/levels/dimensions remain independent; no analytical name total", "analysis_method_version": "reh-uam-junctions-v3", "capacity_eligible": true, "selection_reasons": [], "selection_rule": "reh_degree_at_least_3_distinct_undirected_edges_round6", "name_all_position_count": 1, "source": {"file": "CV_REH_XP_SAO_PAULO.xml", "sha256": "2e11d7bd59fafa426444132d2911ffae2b097de54da11e489bb48656fd59ef3b"}}, "geometry": {"type": "Point", "coordinates": [-46.65083333, -23.5916666699999]}}, {"type": "Feature", "properties": {"resource_id": "REH-WP-628d71b50ec457c650a1", "label": "Elevado Aricanduva", "node_name": "Elevado Aricanduva", "original_names": ["Elevado Aricanduva"], "normalized_name": "ELEVADO_ARICANDUVA", "network": "REH", "criterion": "reh_named_waypoint", "network_degree": 4, "altitude_m": null, "vertical_intervals_m": [[944.88, 944.88]], "altitude_status": "known_envelopes", "dimensions_m": null, "uam_route_ids": [], "reh_resource_ids": ["REH-114", "REH-131", "REH-170", "REH-174"], "uam_route_labels": [], "reh_labels": ["ARICANDUVA - trecho 1", "RADIAL - trecho 2", "RADIAL - trecho 3"], "status": "geometry_only_pending_recomputation", "method": "explicit_named_export_position", "name_group_id": "REH:ELEVADO_ARICANDUVA", "name_position_count": 1, "name_position_ids": ["REH-WP-628d71b50ec457c650a1"], "grouping_rule": "name index only; exact coordinates/levels/dimensions remain independent; no analytical name total", "analysis_method_version": "reh-uam-junctions-v3", "capacity_eligible": true, "selection_reasons": [], "selection_rule": "reh_degree_at_least_3_distinct_undirected_edges_round6", "name_all_position_count": 1, "source": {"file": "CV_REH_XP_SAO_PAULO.xml", "sha256": "2e11d7bd59fafa426444132d2911ffae2b097de54da11e489bb48656fd59ef3b"}}, "geometry": {"type": "Point", "coordinates": [-46.5483333299999, -23.535]}}, {"type": "Feature", "properties": {"resource_id": "REH-WP-35dc8b69267f1a54e986", "label": "Empresarial", "node_name": "Empresarial", "original_names": ["Empresarial"], "normalized_name": "EMPRESARIAL", "network": "REH", "criterion": "reh_named_waypoint", "network_degree": 4, "altitude_m": null, "vertical_intervals_m": [[1005.84, 1005.84], [1005.84, 1097.28], [1036.3200000000002, 1097.28]], "altitude_status": "known_envelopes", "dimensions_m": null, "uam_route_ids": [], "reh_resource_ids": ["REH-124", "REH-184", "REH-206", "REH-207"], "uam_route_labels": [], "reh_labels": ["GUARAPIRANGA - trecho 1", "OESTE - trecho 3", "PINHEIROS - trecho 4", "PINHEIROS - trecho 5"], "status": "geometry_only_pending_recomputation", "method": "explicit_named_export_position", "name_group_id": "REH:EMPRESARIAL", "name_position_count": 1, "name_position_ids": ["REH-WP-35dc8b69267f1a54e986"], "grouping_rule": "name index only; exact coordinates/levels/dimensions remain independent; no analytical name total", "analysis_method_version": "reh-uam-junctions-v3", "capacity_eligible": true, "selection_reasons": [], "selection_rule": "reh_degree_at_least_3_distinct_undirected_edges_round6", "name_all_position_count": 1, "source": {"file": "CV_REH_XP_SAO_PAULO.xml", "sha256": "2e11d7bd59fafa426444132d2911ffae2b097de54da11e489bb48656fd59ef3b"}}, "geometry": {"type": "Point", "coordinates": [-46.7233333299999, -23.6525]}}, {"type": "Feature", "properties": {"resource_id": "REH-WP-4dfa6bb48391f8a301a1", "label": "Entroncamento", "node_name": "Entroncamento", "original_names": ["Entroncamento"], "normalized_name": "ENTRONCAMENTO", "network": "REH", "criterion": "reh_named_waypoint", "network_degree": 3, "altitude_m": null, "vertical_intervals_m": [[1005.84, 1005.84]], "altitude_status": "known_envelopes", "dimensions_m": null, "uam_route_ids": [], "reh_resource_ids": ["REH-143", "REH-185", "REH-186"], "uam_route_labels": [], "reh_labels": ["ANCHIETA - trecho 1", "TANCREDO - trecho 1", "TANCREDO - trecho 2"], "status": "geometry_only_pending_recomputation", "method": "explicit_named_export_position", "name_group_id": "REH:ENTRONCAMENTO", "name_position_count": 1, "name_position_ids": ["REH-WP-4dfa6bb48391f8a301a1"], "grouping_rule": "name index only; exact coordinates/levels/dimensions remain independent; no analytical name total", "analysis_method_version": "reh-uam-junctions-v3", "capacity_eligible": true, "selection_reasons": [], "selection_rule": "reh_degree_at_least_3_distinct_undirected_edges_round6", "name_all_position_count": 1, "source": {"file": "CV_REH_XP_SAO_PAULO.xml", "sha256": "2e11d7bd59fafa426444132d2911ffae2b097de54da11e489bb48656fd59ef3b"}}, "geometry": {"type": "Point", "coordinates": [-46.60055556, -23.60361111]}}, {"type": "Feature", "properties": {"resource_id": "REH-WP-89464b9dd40b5b0f553a", "label": "Estação Saladino", "node_name": "Estação Saladino", "original_names": ["Estação Saladino"], "normalized_name": "ESTACAO_SALADINO", "network": "REH", "criterion": "reh_named_waypoint", "network_degree": 3, "altitude_m": null, "vertical_intervals_m": [[975.36, 1036.3200000000002], [1005.84, 1005.84]], "altitude_status": "known_envelopes", "dimensions_m": null, "uam_route_ids": [], "reh_resource_ids": ["REH-121", "REH-123", "REH-178"], "uam_route_labels": [], "reh_labels": ["ESTADO - trecho 4", "ESTADO - trecho 5", "FÁBRICA - trecho 3"], "status": "geometry_only_pending_recomputation", "method": "explicit_named_export_position", "name_group_id": "REH:ESTACAO_SALADINO", "name_position_count": 1, "name_position_ids": ["REH-WP-89464b9dd40b5b0f553a"], "grouping_rule": "name index only; exact coordinates/levels/dimensions remain independent; no analytical name total", "analysis_method_version": "reh-uam-junctions-v3", "capacity_eligible": true, "selection_reasons": [], "selection_rule": "reh_degree_at_least_3_distinct_undirected_edges_round6", "name_all_position_count": 1, "source": {"file": "CV_REH_XP_SAO_PAULO.xml", "sha256": "2e11d7bd59fafa426444132d2911ffae2b097de54da11e489bb48656fd59ef3b"}}, "geometry": {"type": "Point", "coordinates": [-46.535, -23.6374999999999]}}, {"type": "Feature", "properties": {"resource_id": "REH-WP-48906d9bf2ea5890c352", "label": "Extra Jaguaré", "node_name": "Extra Jaguaré", "original_names": ["Extra Jaguaré"], "normalized_name": "EXTRA_JAGUARE", "network": "REH", "criterion": "reh_named_waypoint", "network_degree": 3, "altitude_m": null, "vertical_intervals_m": [[914.4000000000001, 1005.84], [1005.84, 1036.3200000000002]], "altitude_status": "known_envelopes", "dimensions_m": null, "uam_route_ids": [], "reh_resource_ids": ["REH-199", "REH-200", "REH-202"], "uam_route_labels": [], "reh_labels": ["ESTÁDIO - trecho 1", "ESTÁDIO - trecho 2", "EXTERNO - trecho 1"], "status": "geometry_only_pending_recomputation", "method": "explicit_named_export_position", "name_group_id": "REH:EXTRA_JAGUARE", "name_position_count": 1, "name_position_ids": ["REH-WP-48906d9bf2ea5890c352"], "grouping_rule": "name index only; exact coordinates/levels/dimensions remain independent; no analytical name total", "analysis_method_version": "reh-uam-junctions-v3", "capacity_eligible": true, "selection_reasons": [], "selection_rule": "reh_degree_at_least_3_distinct_undirected_edges_round6", "name_all_position_count": 1, "source": {"file": "CV_REH_XP_SAO_PAULO.xml", "sha256": "2e11d7bd59fafa426444132d2911ffae2b097de54da11e489bb48656fd59ef3b"}}, "geometry": {"type": "Point", "coordinates": [-46.7474999999999, -23.55722222]}}, {"type": "Feature", "properties": {"resource_id": "REH-WP-6f6c7b559524993da7eb", "label": "Extra Taboão", "node_name": "Extra Taboão", "original_names": ["Extra Taboão"], "normalized_name": "EXTRA_TABOAO", "network": "REH", "criterion": "reh_named_waypoint", "network_degree": 4, "altitude_m": null, "vertical_intervals_m": [[1036.3200000000002, 1097.28]], "altitude_status": "known_envelopes", "dimensions_m": null, "uam_route_ids": [], "reh_resource_ids": ["REH-127", "REH-129", "REH-184", "REH-203"], "uam_route_labels": [], "reh_labels": ["MORUMBI - trecho 2", "MORUMBI - trecho 3", "OESTE - trecho 2", "OESTE - trecho 3"], "status": "geometry_only_pending_recomputation", "method": "explicit_named_export_position", "name_group_id": "REH:EXTRA_TABOAO", "name_position_count": 1, "name_position_ids": ["REH-WP-6f6c7b559524993da7eb"], "grouping_rule": "name index only; exact coordinates/levels/dimensions remain independent; no analytical name total", "analysis_method_version": "reh-uam-junctions-v3", "capacity_eligible": true, "selection_reasons": [], "selection_rule": "reh_degree_at_least_3_distinct_undirected_edges_round6", "name_all_position_count": 1, "source": {"file": "CV_REH_XP_SAO_PAULO.xml", "sha256": "2e11d7bd59fafa426444132d2911ffae2b097de54da11e489bb48656fd59ef3b"}}, "geometry": {"type": "Point", "coordinates": [-46.75166667, -23.60861111]}}, {"type": "Feature", "properties": {"resource_id": "REH-WP-7540e1c56ff4b440392d", "label": "Gm", "node_name": "Gm", "original_names": ["Gm"], "normalized_name": "GM", "network": "REH", "criterion": "reh_named_waypoint", "network_degree": 3, "altitude_m": null, "vertical_intervals_m": [[1005.84, 1066.8], [1036.3200000000002, 1066.8]], "altitude_status": "known_envelopes", "dimensions_m": null, "uam_route_ids": [], "reh_resource_ids": ["REH-116", "REH-117", "REH-138"], "uam_route_labels": [], "reh_labels": ["CAMPOS - trecho 1", "CAMPOS - trecho 2", "SENNA - trecho 1"], "status": "geometry_only_pending_recomputation", "method": "explicit_named_export_position", "name_group_id": "REH:GM", "name_position_count": 1, "name_position_ids": ["REH-WP-7540e1c56ff4b440392d"], "grouping_rule": "name index only; exact coordinates/levels/dimensions remain independent; no analytical name total", "analysis_method_version": "reh-uam-junctions-v3", "capacity_eligible": true, "selection_reasons": [], "selection_rule": "reh_degree_at_least_3_distinct_undirected_edges_round6", "name_all_position_count": 1, "source": {"file": "CV_REH_XP_SAO_PAULO.xml", "sha256": "2e11d7bd59fafa426444132d2911ffae2b097de54da11e489bb48656fd59ef3b"}}, "geometry": {"type": "Point", "coordinates": [-46.25722222, -23.44083333]}}, {"type": "Feature", "properties": {"resource_id": "REH-WP-ccd3273b6b1ef9335a16", "label": "Kentinha", "node_name": "Kentinha", "original_names": ["Kentinha"], "normalized_name": "KENTINHA", "network": "REH", "criterion": "reh_named_waypoint", "network_degree": 3, "altitude_m": null, "vertical_intervals_m": [[1005.84, 1005.84], [1036.3200000000002, 1097.28]], "altitude_status": "known_envelopes", "dimensions_m": null, "uam_route_ids": [], "reh_resource_ids": ["REH-122", "REH-159", "REH-208"], "uam_route_labels": [], "reh_labels": ["FÁBRICA - trecho 1", "FÁBRICA - trecho 2", "IMIGRANTES - trecho 1"], "status": "geometry_only_pending_recomputation", "method": "explicit_named_export_position", "name_group_id": "REH:KENTINHA", "name_position_count": 1, "name_position_ids": ["REH-WP-ccd3273b6b1ef9335a16"], "grouping_rule": "name index only; exact coordinates/levels/dimensions remain independent; no analytical name total", "analysis_method_version": "reh-uam-junctions-v3", "capacity_eligible": true, "selection_reasons": [], "selection_rule": "reh_degree_at_least_3_distinct_undirected_edges_round6", "name_all_position_count": 1, "source": {"file": "CV_REH_XP_SAO_PAULO.xml", "sha256": "2e11d7bd59fafa426444132d2911ffae2b097de54da11e489bb48656fd59ef3b"}}, "geometry": {"type": "Point", "coordinates": [-46.6077777799999, -23.7222222199999]}}, {"type": "Feature", "properties": {"resource_id": "REH-WP-296c939e855352e08f82", "label": "Luz", "node_name": "Luz", "original_names": ["Luz"], "normalized_name": "LUZ", "network": "REH", "criterion": "reh_named_waypoint", "network_degree": 3, "altitude_m": null, "vertical_intervals_m": [], "altitude_status": "unknown_or_invalid_envelope", "dimensions_m": null, "uam_route_ids": [], "reh_resource_ids": ["REH-183", "REH-187", "REH-195"], "uam_route_labels": [], "reh_labels": ["MARTE - trecho 3", "MARTE - trecho 4", "Portão Luz - trecho 1"], "status": "geometry_only_pending_recomputation", "method": "explicit_named_export_position", "name_group_id": "REH:LUZ", "name_position_count": 1, "name_position_ids": ["REH-WP-296c939e855352e08f82"], "grouping_rule": "name index only; exact coordinates/levels/dimensions remain independent; no analytical name total", "analysis_method_version": "reh-uam-junctions-v3", "capacity_eligible": true, "selection_reasons": [], "selection_rule": "reh_degree_at_least_3_distinct_undirected_edges_round6", "name_all_position_count": 1, "source": {"file": "CV_REH_XP_SAO_PAULO.xml", "sha256": "2e11d7bd59fafa426444132d2911ffae2b097de54da11e489bb48656fd59ef3b"}}, "geometry": {"type": "Point", "coordinates": [-46.6352777779999, -23.535]}}, {"type": "Feature", "properties": {"resource_id": "REH-WP-0e1b8b2bef089bd90e4e", "label": "Mailasqui", "node_name": "Mailasqui", "original_names": ["Mailasqui"], "normalized_name": "MAILASQUI", "network": "REH", "criterion": "reh_named_waypoint", "network_degree": 3, "altitude_m": null, "vertical_intervals_m": [], "altitude_status": "unknown_or_invalid_envelope", "dimensions_m": null, "uam_route_ids": [], "reh_resource_ids": ["REH-153", "REH-191", "REH-217"], "uam_route_labels": [], "reh_labels": ["Portão Mailasqui - trecho 1", "RAPOSO - trecho 8", "RAPOSO - trecho 9"], "status": "geometry_only_pending_recomputation", "method": "explicit_named_export_position", "name_group_id": "REH:MAILASQUI", "name_position_count": 1, "name_position_ids": ["REH-WP-0e1b8b2bef089bd90e4e"], "grouping_rule": "name index only; exact coordinates/levels/dimensions remain independent; no analytical name total", "analysis_method_version": "reh-uam-junctions-v3", "capacity_eligible": true, "selection_reasons": [], "selection_rule": "reh_degree_at_least_3_distinct_undirected_edges_round6", "name_all_position_count": 1, "source": {"file": "CV_REH_XP_SAO_PAULO.xml", "sha256": "2e11d7bd59fafa426444132d2911ffae2b097de54da11e489bb48656fd59ef3b"}}, "geometry": {"type": "Point", "coordinates": [-47.07222222, -23.5669444399999]}}, {"type": "Feature", "properties": {"resource_id": "REH-WP-f14e24ca9367ab00e492", "label": "Marco Zero", "node_name": "Marco Zero", "original_names": ["Marco Zero"], "normalized_name": "MARCO_ZERO", "network": "REH", "criterion": "reh_named_waypoint", "network_degree": 3, "altitude_m": null, "vertical_intervals_m": [[975.36, 975.36], [1005.84, 1005.84]], "altitude_status": "known_envelopes", "dimensions_m": null, "uam_route_ids": [], "reh_resource_ids": ["REH-165", "REH-181", "REH-182"], "uam_route_labels": [], "reh_labels": ["ANHANGUERA SUL - trecho 1", "MARTE - trecho 1", "MARTE - trecho 2"], "status": "geometry_only_pending_recomputation", "method": "explicit_named_export_position", "name_group_id": "REH:MARCO_ZERO", "name_position_count": 1, "name_position_ids": ["REH-WP-f14e24ca9367ab00e492"], "grouping_rule": "name index only; exact coordinates/levels/dimensions remain independent; no analytical name total", "analysis_method_version": "reh-uam-junctions-v3", "capacity_eligible": true, "selection_reasons": [], "selection_rule": "reh_degree_at_least_3_distinct_undirected_edges_round6", "name_all_position_count": 1, "source": {"file": "CV_REH_XP_SAO_PAULO.xml", "sha256": "2e11d7bd59fafa426444132d2911ffae2b097de54da11e489bb48656fd59ef3b"}}, "geometry": {"type": "Point", "coordinates": [-46.72611111, -23.51444444]}}, {"type": "Feature", "properties": {"resource_id": "REH-WP-6302215216ab38b6780b", "label": "Maxxi", "node_name": "Maxxi", "original_names": ["Maxxi"], "normalized_name": "MAXXI", "network": "REH", "criterion": "reh_named_waypoint", "network_degree": 3, "altitude_m": null, "vertical_intervals_m": [[975.36, 1036.3200000000002], [1005.84, 1005.84], [1005.84, 1097.28]], "altitude_status": "known_envelopes", "dimensions_m": null, "uam_route_ids": [], "reh_resource_ids": ["REH-132", "REH-178", "REH-180"], "uam_route_labels": [], "reh_labels": ["ESTADO - trecho 5", "Ferrovia - trecho 1", "REFINARIA - trecho 1"], "status": "geometry_only_pending_recomputation", "method": "explicit_named_export_position", "name_group_id": "REH:MAXXI", "name_position_count": 1, "name_position_ids": ["REH-WP-6302215216ab38b6780b"], "grouping_rule": "name index only; exact coordinates/levels/dimensions remain independent; no analytical name total", "analysis_method_version": "reh-uam-junctions-v3", "capacity_eligible": true, "selection_reasons": [], "selection_rule": "reh_degree_at_least_3_distinct_undirected_edges_round6", "name_all_position_count": 1, "source": {"file": "CV_REH_XP_SAO_PAULO.xml", "sha256": "2e11d7bd59fafa426444132d2911ffae2b097de54da11e489bb48656fd59ef3b"}}, "geometry": {"type": "Point", "coordinates": [-46.50055556, -23.65638889]}}, {"type": "Feature", "properties": {"resource_id": "REH-WP-bf48fb48a983c1895c29", "label": "Mercedes", "node_name": "Mercedes", "original_names": ["Mercedes"], "normalized_name": "MERCEDES", "network": "REH", "criterion": "reh_named_waypoint", "network_degree": 4, "altitude_m": null, "vertical_intervals_m": [[1005.84, 1005.84], [1005.84, 1066.8]], "altitude_status": "known_envelopes", "dimensions_m": null, "uam_route_ids": [], "reh_resource_ids": ["REH-122", "REH-123", "REH-143", "REH-144"], "uam_route_labels": [], "reh_labels": ["ANCHIETA - trecho 1", "ANCHIETA - trecho 2", "FÁBRICA - trecho 2", "FÁBRICA - trecho 3"], "status": "geometry_only_pending_recomputation", "method": "explicit_named_export_position", "name_group_id": "REH:MERCEDES", "name_position_count": 1, "name_position_ids": ["REH-WP-bf48fb48a983c1895c29"], "grouping_rule": "name index only; exact coordinates/levels/dimensions remain independent; no analytical name total", "analysis_method_version": "reh-uam-junctions-v3", "capacity_eligible": true, "selection_reasons": [], "selection_rule": "reh_degree_at_least_3_distinct_undirected_edges_round6", "name_all_position_count": 1, "source": {"file": "CV_REH_XP_SAO_PAULO.xml", "sha256": "2e11d7bd59fafa426444132d2911ffae2b097de54da11e489bb48656fd59ef3b"}}, "geometry": {"type": "Point", "coordinates": [-46.57333333, -23.66611111]}}, {"type": "Feature", "properties": {"resource_id": "REH-WP-03dadcc57139582eb153", "label": "Parelheiros", "node_name": "Parelheiros", "original_names": ["Parelheiros"], "normalized_name": "PARELHEIROS", "network": "REH", "criterion": "reh_named_waypoint", "network_degree": 3, "altitude_m": null, "vertical_intervals_m": [[1005.84, 1097.28], [1036.3200000000002, 1097.28]], "altitude_status": "known_envelopes", "dimensions_m": null, "uam_route_ids": [], "reh_resource_ids": ["REH-124", "REH-156", "REH-157"], "uam_route_labels": [], "reh_labels": ["GUARAPIRANGA - trecho 1", "RODOANEL - trecho 2", "RODOANEL - trecho 3"], "status": "geometry_only_pending_recomputation", "method": "explicit_named_export_position", "name_group_id": "REH:PARELHEIROS", "name_position_count": 1, "name_position_ids": ["REH-WP-03dadcc57139582eb153"], "grouping_rule": "name index only; exact coordinates/levels/dimensions remain independent; no analytical name total", "analysis_method_version": "reh-uam-junctions-v3", "capacity_eligible": true, "selection_reasons": [], "selection_rule": "reh_degree_at_least_3_distinct_undirected_edges_round6", "name_all_position_count": 1, "source": {"file": "CV_REH_XP_SAO_PAULO.xml", "sha256": "2e11d7bd59fafa426444132d2911ffae2b097de54da11e489bb48656fd59ef3b"}}, "geometry": {"type": "Point", "coordinates": [-46.7344444399999, -23.80305556]}}, {"type": "Feature", "properties": {"resource_id": "REH-WP-56f39d98e4d7729cc154", "label": "Ponte Aricanduva", "node_name": "Ponte Aricanduva", "original_names": ["Ponte Aricanduva"], "normalized_name": "PONTE_ARICANDUVA", "network": "REH", "criterion": "reh_named_waypoint", "network_degree": 4, "altitude_m": null, "vertical_intervals_m": [], "altitude_status": "unknown_or_invalid_envelope", "dimensions_m": null, "uam_route_ids": [], "reh_resource_ids": ["REH-114", "REH-120", "REH-137", "REH-209"], "uam_route_labels": [], "reh_labels": ["ARICANDUVA - trecho 1", "ECOLÓGICO - trecho 1", "ECOLÓGICO - trecho 2", "FERNÃO - trecho 1"], "status": "geometry_only_pending_recomputation", "method": "explicit_named_export_position", "name_group_id": "REH:PONTE_ARICANDUVA", "name_position_count": 1, "name_position_ids": ["REH-WP-56f39d98e4d7729cc154"], "grouping_rule": "name index only; exact coordinates/levels/dimensions remain independent; no analytical name total", "analysis_method_version": "reh-uam-junctions-v3", "capacity_eligible": true, "selection_reasons": [], "selection_rule": "reh_degree_at_least_3_distinct_undirected_edges_round6", "name_all_position_count": 1, "source": {"file": "CV_REH_XP_SAO_PAULO.xml", "sha256": "2e11d7bd59fafa426444132d2911ffae2b097de54da11e489bb48656fd59ef3b"}}, "geometry": {"type": "Point", "coordinates": [-46.55833333, -23.5230555599999]}}, {"type": "Feature", "properties": {"resource_id": "REH-WP-a144b575c10365d83328", "label": "Ponte Estaiada", "node_name": "Ponte Estaiada", "original_names": ["Ponte Estaiada"], "normalized_name": "PONTE_ESTAIADA", "network": "REH", "criterion": "reh_named_waypoint", "network_degree": 4, "altitude_m": null, "vertical_intervals_m": [[1005.84, 1005.84], [1005.84, 1036.3200000000002], [1036.3200000000002, 1066.8]], "altitude_status": "known_envelopes", "dimensions_m": null, "uam_route_ids": [], "reh_resource_ids": ["REH-141", "REH-201", "REH-204", "REH-205"], "uam_route_labels": [], "reh_labels": ["ESPRAIADA - trecho 1", "MORUMBI - trecho 1", "PINHEIROS - trecho 2", "PINHEIROS - trecho 3"], "status": "geometry_only_pending_recomputation", "method": "explicit_named_export_position", "name_group_id": "REH:PONTE_ESTAIADA", "name_position_count": 1, "name_position_ids": ["REH-WP-a144b575c10365d83328"], "grouping_rule": "name index only; exact coordinates/levels/dimensions remain independent; no analytical name total", "analysis_method_version": "reh-uam-junctions-v3", "capacity_eligible": true, "selection_reasons": [], "selection_rule": "reh_degree_at_least_3_distinct_undirected_edges_round6", "name_all_position_count": 1, "source": {"file": "CV_REH_XP_SAO_PAULO.xml", "sha256": "2e11d7bd59fafa426444132d2911ffae2b097de54da11e489bb48656fd59ef3b"}}, "geometry": {"type": "Point", "coordinates": [-46.69944444, -23.6127777799999]}}, {"type": "Feature", "properties": {"resource_id": "REH-WP-3f9c6ec4f05449598d28", "label": "Ponte Jaguaré", "node_name": "Ponte Jaguaré", "original_names": ["Ponte Jaguaré"], "normalized_name": "PONTE_JAGUARE", "network": "REH", "criterion": "reh_named_waypoint", "network_degree": 3, "altitude_m": null, "vertical_intervals_m": [[914.4000000000001, 1005.84], [1005.84, 1005.84]], "altitude_status": "known_envelopes", "dimensions_m": null, "uam_route_ids": [], "reh_resource_ids": ["REH-198", "REH-200", "REH-201"], "uam_route_labels": [], "reh_labels": ["EXTERNO - trecho 1", "PINHEIROS - trecho 1", "PINHEIROS - trecho 2"], "status": "geometry_only_pending_recomputation", "method": "explicit_named_export_position", "name_group_id": "REH:PONTE_JAGUARE", "name_position_count": 1, "name_position_ids": ["REH-WP-3f9c6ec4f05449598d28"], "grouping_rule": "name index only; exact coordinates/levels/dimensions remain independent; no analytical name total", "analysis_method_version": "reh-uam-junctions-v3", "capacity_eligible": true, "selection_reasons": [], "selection_rule": "reh_degree_at_least_3_distinct_undirected_edges_round6", "name_all_position_count": 1, "source": {"file": "CV_REH_XP_SAO_PAULO.xml", "sha256": "2e11d7bd59fafa426444132d2911ffae2b097de54da11e489bb48656fd59ef3b"}}, "geometry": {"type": "Point", "coordinates": [-46.73472222, -23.5458333299999]}}, {"type": "Feature", "properties": {"resource_id": "REH-WP-10f31dfbe26ccb969564", "label": "Rodoanel Castelo", "node_name": "Rodoanel Castelo", "original_names": ["Rodoanel Castelo"], "normalized_name": "RODOANEL_CASTELO", "network": "REH", "criterion": "reh_named_waypoint", "network_degree": 4, "altitude_m": null, "vertical_intervals_m": [[975.36, 975.36], [1036.3200000000002, 1036.3200000000002]], "altitude_status": "known_envelopes", "dimensions_m": null, "uam_route_ids": [], "reh_resource_ids": ["REH-135", "REH-136", "REH-167", "REH-175"], "uam_route_labels": [], "reh_labels": ["CASTELO - trecho 1", "CASTELO - trecho 2", "RODOANEL - trecho 4", "RODOANEL - trecho 5"], "status": "geometry_only_pending_recomputation", "method": "explicit_named_export_position", "name_group_id": "REH:RODOANEL_CASTELO", "name_position_count": 1, "name_position_ids": ["REH-WP-10f31dfbe26ccb969564"], "grouping_rule": "name index only; exact coordinates/levels/dimensions remain independent; no analytical name total", "analysis_method_version": "reh-uam-junctions-v3", "capacity_eligible": true, "selection_reasons": [], "selection_rule": "reh_degree_at_least_3_distinct_undirected_edges_round6", "name_all_position_count": 1, "source": {"file": "CV_REH_XP_SAO_PAULO.xml", "sha256": "2e11d7bd59fafa426444132d2911ffae2b097de54da11e489bb48656fd59ef3b"}}, "geometry": {"type": "Point", "coordinates": [-46.82138889, -23.50888889]}}, {"type": "Feature", "properties": {"resource_id": "REH-WP-7dcb64a4944a1aea450f", "label": "Rodoanel Raposo", "node_name": "Rodoanel Raposo", "original_names": ["Rodoanel Raposo"], "normalized_name": "RODOANEL_RAPOSO", "network": "REH", "criterion": "reh_named_waypoint", "network_degree": 4, "altitude_m": null, "vertical_intervals_m": [[975.36, 975.36], [1036.3200000000002, 1097.28]], "altitude_status": "known_envelopes", "dimensions_m": null, "uam_route_ids": [], "reh_resource_ids": ["REH-127", "REH-135", "REH-155", "REH-156"], "uam_route_labels": [], "reh_labels": ["MORUMBI - trecho 3", "RAPOSO - trecho 11", "RODOANEL - trecho 3", "RODOANEL - trecho 4"], "status": "geometry_only_pending_recomputation", "method": "explicit_named_export_position", "name_group_id": "REH:RODOANEL_RAPOSO", "name_position_count": 1, "name_position_ids": ["REH-WP-7dcb64a4944a1aea450f"], "grouping_rule": "name index only; exact coordinates/levels/dimensions remain independent; no analytical name total", "analysis_method_version": "reh-uam-junctions-v3", "capacity_eligible": true, "selection_reasons": [], "selection_rule": "reh_degree_at_least_3_distinct_undirected_edges_round6", "name_all_position_count": 1, "source": {"file": "CV_REH_XP_SAO_PAULO.xml", "sha256": "2e11d7bd59fafa426444132d2911ffae2b097de54da11e489bb48656fd59ef3b"}}, "geometry": {"type": "Point", "coordinates": [-46.81027778, -23.5922222199999]}}, {"type": "Feature", "properties": {"resource_id": "REH-WP-7ba6ff6f6793c66acb20", "label": "Shopping Continental", "node_name": "Shopping Continental", "original_names": ["Shopping Continental"], "normalized_name": "SHOPPING_CONTINENTAL", "network": "REH", "criterion": "reh_named_waypoint", "network_degree": 3, "altitude_m": null, "vertical_intervals_m": [[975.36, 1005.84], [1005.84, 1036.3200000000002], [1036.3200000000002, 1097.28]], "altitude_status": "known_envelopes", "dimensions_m": null, "uam_route_ids": [], "reh_resource_ids": ["REH-128", "REH-129", "REH-199"], "uam_route_labels": [], "reh_labels": ["ESTÁDIO - trecho 2", "OESTE - trecho 1", "OESTE - trecho 2"], "status": "geometry_only_pending_recomputation", "method": "explicit_named_export_position", "name_group_id": "REH:SHOPPING_CONTINENTAL", "name_position_count": 1, "name_position_ids": ["REH-WP-7ba6ff6f6793c66acb20"], "grouping_rule": "name index only; exact coordinates/levels/dimensions remain independent; no analytical name total", "analysis_method_version": "reh-uam-junctions-v3", "capacity_eligible": true, "selection_reasons": [], "selection_rule": "reh_degree_at_least_3_distinct_undirected_edges_round6", "name_all_position_count": 1, "source": {"file": "CV_REH_XP_SAO_PAULO.xml", "sha256": "2e11d7bd59fafa426444132d2911ffae2b097de54da11e489bb48656fd59ef3b"}}, "geometry": {"type": "Point", "coordinates": [-46.75527778, -23.54805556]}}, {"type": "Feature", "properties": {"resource_id": "REH-WP-608c8b62e8bd54c13e7e", "label": "Shopping Tatuapé", "node_name": "Shopping Tatuapé", "original_names": ["Shopping Tatuapé"], "normalized_name": "SHOPPING_TATUAPE", "network": "REH", "criterion": "reh_named_waypoint", "network_degree": 3, "altitude_m": null, "vertical_intervals_m": [[944.88, 944.88], [1005.84, 1005.84]], "altitude_status": "known_envelopes", "dimensions_m": null, "uam_route_ids": [], "reh_resource_ids": ["REH-120", "REH-130", "REH-131"], "uam_route_labels": [], "reh_labels": ["ECOLÓGICO - trecho 1", "RADIAL - trecho 1", "RADIAL - trecho 2"], "status": "geometry_only_pending_recomputation", "method": "explicit_named_export_position", "name_group_id": "REH:SHOPPING_TATUAPE", "name_position_count": 1, "name_position_ids": ["REH-WP-608c8b62e8bd54c13e7e"], "grouping_rule": "name index only; exact coordinates/levels/dimensions remain independent; no analytical name total", "analysis_method_version": "reh-uam-junctions-v3", "capacity_eligible": true, "selection_reasons": [], "selection_rule": "reh_degree_at_least_3_distinct_undirected_edges_round6", "name_all_position_count": 1, "source": {"file": "CV_REH_XP_SAO_PAULO.xml", "sha256": "2e11d7bd59fafa426444132d2911ffae2b097de54da11e489bb48656fd59ef3b"}}, "geometry": {"type": "Point", "coordinates": [-46.57632054, -23.538972004]}}, {"type": "Feature", "properties": {"resource_id": "REH-WP-4eee34403391d1f7bc15", "label": "Suzano", "node_name": "Suzano", "original_names": ["Suzano"], "normalized_name": "SUZANO", "network": "REH", "criterion": "reh_named_waypoint", "network_degree": 3, "altitude_m": null, "vertical_intervals_m": [[944.88, 1036.3200000000002], [1036.3200000000002, 1036.3200000000002], [1036.3200000000002, 1066.8]], "altitude_status": "known_envelopes", "dimensions_m": null, "uam_route_ids": [], "reh_resource_ids": ["REH-116", "REH-134", "REH-169"], "uam_route_labels": [], "reh_labels": ["CAMPOS - trecho 1", "SUZANO - trecho 2", "SUZANO - trecho 3"], "status": "geometry_only_pending_recomputation", "method": "explicit_named_export_position", "name_group_id": "REH:SUZANO", "name_position_count": 1, "name_position_ids": ["REH-WP-4eee34403391d1f7bc15"], "grouping_rule": "name index only; exact coordinates/levels/dimensions remain independent; no analytical name total", "analysis_method_version": "reh-uam-junctions-v3", "capacity_eligible": true, "selection_reasons": [], "selection_rule": "reh_degree_at_least_3_distinct_undirected_edges_round6", "name_all_position_count": 1, "source": {"file": "CV_REH_XP_SAO_PAULO.xml", "sha256": "2e11d7bd59fafa426444132d2911ffae2b097de54da11e489bb48656fd59ef3b"}}, "geometry": {"type": "Point", "coordinates": [-46.30805556, -23.5341666699999]}}, {"type": "Feature", "properties": {"resource_id": "REH-WP-d531e665fba9a5915310", "label": "Trevo Anchieta", "node_name": "Trevo Anchieta", "original_names": ["Trevo Anchieta"], "normalized_name": "TREVO_ANCHIETA", "network": "REH", "criterion": "reh_named_waypoint", "network_degree": 3, "altitude_m": null, "vertical_intervals_m": [[1005.84, 1066.8], [1036.3200000000002, 1097.28]], "altitude_status": "known_envelopes", "dimensions_m": null, "uam_route_ids": [], "reh_resource_ids": ["REH-144", "REH-145", "REH-158"], "uam_route_labels": [], "reh_labels": ["ANCHIETA - trecho 2", "ANCHIETA - trecho 3", "RODOANEL - trecho 1"], "status": "geometry_only_pending_recomputation", "method": "explicit_named_export_position", "name_group_id": "REH:TREVO_ANCHIETA", "name_position_count": 1, "name_position_ids": ["REH-WP-d531e665fba9a5915310"], "grouping_rule": "name index only; exact coordinates/levels/dimensions remain independent; no analytical name total", "analysis_method_version": "reh-uam-junctions-v3", "capacity_eligible": true, "selection_reasons": [], "selection_rule": "reh_degree_at_least_3_distinct_undirected_edges_round6", "name_all_position_count": 1, "source": {"file": "CV_REH_XP_SAO_PAULO.xml", "sha256": "2e11d7bd59fafa426444132d2911ffae2b097de54da11e489bb48656fd59ef3b"}}, "geometry": {"type": "Point", "coordinates": [-46.5341666699999, -23.7636111099999]}}, {"type": "Feature", "properties": {"resource_id": "REH-WP-439c7d07e50c789c85e6", "label": "Trevo Imigrantes", "node_name": "Trevo Imigrantes", "original_names": ["Trevo Imigrantes"], "normalized_name": "TREVO_IMIGRANTES", "network": "REH", "criterion": "reh_named_waypoint", "network_degree": 4, "altitude_m": null, "vertical_intervals_m": [[1036.3200000000002, 1097.28]], "altitude_status": "known_envelopes", "dimensions_m": null, "uam_route_ids": [], "reh_resource_ids": ["REH-157", "REH-158", "REH-159", "REH-160"], "uam_route_labels": [], "reh_labels": ["IMIGRANTES - trecho 1", "IMIGRANTES - trecho 2", "RODOANEL - trecho 1", "RODOANEL - trecho 2"], "status": "geometry_only_pending_recomputation", "method": "explicit_named_export_position", "name_group_id": "REH:TREVO_IMIGRANTES", "name_position_count": 1, "name_position_ids": ["REH-WP-439c7d07e50c789c85e6"], "grouping_rule": "name index only; exact coordinates/levels/dimensions remain independent; no analytical name total", "analysis_method_version": "reh-uam-junctions-v3", "capacity_eligible": true, "selection_reasons": [], "selection_rule": "reh_degree_at_least_3_distinct_undirected_edges_round6", "name_all_position_count": 1, "source": {"file": "CV_REH_XP_SAO_PAULO.xml", "sha256": "2e11d7bd59fafa426444132d2911ffae2b097de54da11e489bb48656fd59ef3b"}}, "geometry": {"type": "Point", "coordinates": [-46.59111111, -23.76333333]}}, {"type": "Feature", "properties": {"resource_id": "REH-WP-1e31f1507767c6d52e1f", "label": "Vd Grande São Paulo", "node_name": "Vd Grande São Paulo", "original_names": ["Vd Grande São Paulo"], "normalized_name": "VD_GRANDE_SAO_PAULO", "network": "REH", "criterion": "reh_named_waypoint", "network_degree": 3, "altitude_m": null, "vertical_intervals_m": [[975.36, 1036.3200000000002], [1005.84, 1005.84]], "altitude_status": "known_envelopes", "dimensions_m": null, "uam_route_ids": [], "reh_resource_ids": ["REH-173", "REH-177", "REH-185"], "uam_route_labels": [], "reh_labels": ["ESTADO - trecho 1", "ESTADO - trecho 2", "TANCREDO - trecho 1"], "status": "geometry_only_pending_recomputation", "method": "explicit_named_export_position", "name_group_id": "REH:VD_GRANDE_SAO_PAULO", "name_position_count": 1, "name_position_ids": ["REH-WP-1e31f1507767c6d52e1f"], "grouping_rule": "name index only; exact coordinates/levels/dimensions remain independent; no analytical name total", "analysis_method_version": "reh-uam-junctions-v3", "capacity_eligible": true, "selection_reasons": [], "selection_rule": "reh_degree_at_least_3_distinct_undirected_edges_round6", "name_all_position_count": 1, "source": {"file": "CV_REH_XP_SAO_PAULO.xml", "sha256": "2e11d7bd59fafa426444132d2911ffae2b097de54da11e489bb48656fd59ef3b"}}, "geometry": {"type": "Point", "coordinates": [-46.59805556, -23.5866666699999]}}, {"type": "Feature", "properties": {"resource_id": "REH-WP-7bd8dec56987d003130d", "label": "Viaduto Antártica", "node_name": "Viaduto Antártica", "original_names": ["Viaduto Antártica"], "normalized_name": "VIADUTO_ANTARTICA", "network": "REH", "criterion": "reh_named_waypoint", "network_degree": 3, "altitude_m": null, "vertical_intervals_m": [[944.88, 944.88], [975.36, 975.36], [1005.84, 1005.84]], "altitude_status": "known_envelopes", "dimensions_m": null, "uam_route_ids": [], "reh_resource_ids": ["REH-139", "REH-182", "REH-195"], "uam_route_labels": [], "reh_labels": ["CONGONHAS - trecho 1", "MARTE - trecho 2", "MARTE - trecho 3"], "status": "geometry_only_pending_recomputation", "method": "explicit_named_export_position", "name_group_id": "REH:VIADUTO_ANTARTICA", "name_position_count": 1, "name_position_ids": ["REH-WP-7bd8dec56987d003130d"], "grouping_rule": "name index only; exact coordinates/levels/dimensions remain independent; no analytical name total", "analysis_method_version": "reh-uam-junctions-v3", "capacity_eligible": true, "selection_reasons": [], "selection_rule": "reh_degree_at_least_3_distinct_undirected_edges_round6", "name_all_position_count": 1, "source": {"file": "CV_REH_XP_SAO_PAULO.xml", "sha256": "2e11d7bd59fafa426444132d2911ffae2b097de54da11e489bb48656fd59ef3b"}}, "geometry": {"type": "Point", "coordinates": [-46.6708333299999, -23.5247222199999]}}, {"type": "Feature", "properties": {"resource_id": "UAM-WP-6539e95335dc013c62c7", "label": "ALCANTARA_MACHADO", "node_name": "ALCANTARA_MACHADO", "original_names": ["ALCANTARA_MACHADO"], "normalized_name": "ALCANTARA_MACHADO", "network": "UAM", "criterion": "uam_named_waypoint", "network_degree": 3, "altitude_m": 1219.0, "vertical_intervals_m": [[1066.5, 1371.5]], "altitude_status": "known_envelopes", "dimensions_m": [305.0, 457.0], "uam_route_ids": ["UAM002", "UAM004", "UAM021", "UAM023", "UAM033", "UAM035"], "reh_resource_ids": [], "uam_route_labels": ["SBGR-VP-002 (Parallel 1)", "SBGR-VP-003 (Parallel 1)", "SBMT-VP-002 (Parallel 1)", "SBMT-VP-003 (Parallel 1)", "SBSP-SBGR (Parallel 2)", "SBSP-SBMT (Parallel 2)"], "reh_labels": [], "status": "geometry_only_pending_recomputation", "method": "explicit_named_export_position", "name_group_id": "UAM:ALCANTARA_MACHADO", "name_position_count": 2, "name_position_ids": ["UAM-WP-6539e95335dc013c62c7", "UAM-WP-8ba3a2f86f6f972185f3"], "grouping_rule": "name index only; exact coordinates/levels/dimensions remain independent; no analytical name total", "analysis_method_version": "reh-uam-junctions-v3", "distinct_edge_neighbors": [[-23.542081085594123, -46.621318761506515, 1219.0, 305.0, 457.0], [-23.544921516049907, -46.619454729019914, 1219.0, 305.0, 457.0], [-23.556416918805503, -46.61755958582767, 1219.0, 305.0, 457.0]], "terminal_route_ids": [], "interior_route_ids": ["UAM002", "UAM004", "UAM021", "UAM023", "UAM033", "UAM035"], "terminal_only": false, "reh_reference": {"resource_id": "REH-WP-0a627d59ccdba547fb36", "label": "Alcântara Machado", "horizontal_distance_m": 307.34405525993725, "max_distance_m": 500.0, "match_method": "normalized_exact_name", "coordinates": [-46.6113888899999, -23.5527777799999]}, "capacity_eligible": true, "selection_reasons": [], "selection_rule": "uam_degree_at_least_3_and_reh_reference_within_500m_and_nonterminal_use", "name_all_position_count": 2, "source": {"file": "scenario_horizontal_3000ft_expanded_displaced.csv", "sha256": "22a7773a304d67de1faf665f6ab0dca4aa2634df0feb120361ec443d39310ff1"}}, "geometry": {"type": "Point", "coordinates": [-46.61439946562285, -23.552624774559753]}}, {"type": "Feature", "properties": {"resource_id": "UAM-WP-8ba3a2f86f6f972185f3", "label": "ALCANTARA_MACHADO", "node_name": "ALCANTARA_MACHADO", "original_names": ["ALCANTARA_MACHADO"], "normalized_name": "ALCANTARA_MACHADO", "network": "UAM", "criterion": "uam_named_waypoint", "network_degree": 3, "altitude_m": 1219.0, "vertical_intervals_m": [[1066.5, 1371.5]], "altitude_status": "known_envelopes", "dimensions_m": [305.0, 457.0], "uam_route_ids": ["UAM001", "UAM003", "UAM022", "UAM024", "UAM034", "UAM036"], "reh_resource_ids": [], "uam_route_labels": ["SBGR-VP-002 (Parallel 2)", "SBGR-VP-003 (Parallel 2)", "SBMT-VP-002 (Parallel 2)", "SBMT-VP-003 (Parallel 2)", "SBSP-SBGR (Parallel 1)", "SBSP-SBMT (Parallel 1)"], "reh_labels": [], "status": "geometry_only_pending_recomputation", "method": "explicit_named_export_position", "name_group_id": "UAM:ALCANTARA_MACHADO", "name_position_count": 2, "name_position_ids": ["UAM-WP-6539e95335dc013c62c7", "UAM-WP-8ba3a2f86f6f972185f3"], "grouping_rule": "name index only; exact coordinates/levels/dimensions remain independent; no analytical name total", "analysis_method_version": "reh-uam-junctions-v3", "distinct_edge_neighbors": [[-23.542856261727895, -46.61498971542449, 1219.0, 305.0, 457.0], [-23.54569669218368, -46.61312568293789, 1219.0, 305.0, 457.0], [-23.5591386367501, -46.61355152528353, 1219.0, 305.0, 457.0]], "terminal_route_ids": [], "interior_route_ids": ["UAM001", "UAM003", "UAM022", "UAM024", "UAM034", "UAM036"], "terminal_only": false, "reh_reference": {"resource_id": "REH-WP-0a627d59ccdba547fb36", "label": "Alcântara Machado", "horizontal_distance_m": 307.3438973817858, "max_distance_m": 500.0, "match_method": "normalized_exact_name", "coordinates": [-46.6113888899999, -23.5527777799999]}, "capacity_eligible": true, "selection_reasons": [], "selection_rule": "uam_degree_at_least_3_and_reh_reference_within_500m_and_nonterminal_use", "name_all_position_count": 2, "source": {"file": "scenario_horizontal_3000ft_expanded_displaced.csv", "sha256": "22a7773a304d67de1faf665f6ab0dca4aa2634df0feb120361ec443d39310ff1"}}, "geometry": {"type": "Point", "coordinates": [-46.60837831215494, -23.552930780995844]}}, {"type": "Feature", "properties": {"resource_id": "UAM-WP-750da41a1b933cd712e3", "label": "ANA_ROSA", "node_name": "ANA_ROSA", "original_names": ["ANA_ROSA"], "normalized_name": "ANA_ROSA", "network": "UAM", "criterion": "uam_named_waypoint", "network_degree": 3, "altitude_m": 1219.0, "vertical_intervals_m": [[1066.5, 1371.5]], "altitude_status": "known_envelopes", "dimensions_m": [305.0, 457.0], "uam_route_ids": ["UAM002", "UAM004", "UAM023", "UAM035"], "reh_resource_ids": [], "uam_route_labels": ["SBGR-VP-003 (Parallel 1)", "SBMT-VP-003 (Parallel 1)", "SBSP-SBGR (Parallel 2)", "SBSP-SBMT (Parallel 2)"], "reh_labels": [], "status": "geometry_only_pending_recomputation", "method": "explicit_named_export_position", "name_group_id": "UAM:ANA_ROSA", "name_position_count": 2, "name_position_ids": ["UAM-WP-750da41a1b933cd712e3", "UAM-WP-7a2be92cfca3f1b02b87"], "grouping_rule": "name index only; exact coordinates/levels/dimensions remain independent; no analytical name total", "analysis_method_version": "reh-uam-junctions-v3", "distinct_edge_neighbors": [[-23.572879167604274, -46.630455014053375, 1219.0, 305.0, 457.0], [-23.58936597520106, -46.65172978950229, 1219.0, 305.0, 457.0], [-23.590511689651272, -46.653202850938264, 1219.0, 305.0, 457.0]], "terminal_route_ids": [], "interior_route_ids": ["UAM002", "UAM004", "UAM023", "UAM035"], "terminal_only": false, "reh_reference": {"resource_id": "REH-WP-74ca2fc3f89b8b1a72f5", "label": "Ana Rosa", "horizontal_distance_m": 254.1669214479087, "max_distance_m": 500.0, "match_method": "normalized_exact_name", "coordinates": [-46.63833333, -23.58194444]}, "capacity_eligible": true, "selection_reasons": [], "selection_rule": "uam_degree_at_least_3_and_reh_reference_within_500m_and_nonterminal_use", "name_all_position_count": 4, "source": {"file": "scenario_horizontal_3000ft_expanded_displaced.csv", "sha256": "22a7773a304d67de1faf665f6ab0dca4aa2634df0feb120361ec443d39310ff1"}}, "geometry": {"type": "Point", "coordinates": [-46.63994281006619, -23.58019832452846]}}, {"type": "Feature", "properties": {"resource_id": "UAM-WP-7a2be92cfca3f1b02b87", "label": "ANA_ROSA", "node_name": "ANA_ROSA", "original_names": ["ANA_ROSA"], "normalized_name": "ANA_ROSA", "network": "UAM", "criterion": "uam_named_waypoint", "network_degree": 3, "altitude_m": 1219.0, "vertical_intervals_m": [[1066.5, 1371.5]], "altitude_status": "known_envelopes", "dimensions_m": [305.0, 457.0], "uam_route_ids": ["UAM001", "UAM003", "UAM024", "UAM036"], "reh_resource_ids": [], "uam_route_labels": ["SBGR-VP-003 (Parallel 2)", "SBMT-VP-003 (Parallel 2)", "SBSP-SBGR (Parallel 1)", "SBSP-SBMT (Parallel 1)"], "reh_labels": [], "status": "geometry_only_pending_recomputation", "method": "explicit_named_export_position", "name_group_id": "UAM:ANA_ROSA", "name_position_count": 2, "name_position_ids": ["UAM-WP-750da41a1b933cd712e3", "UAM-WP-7a2be92cfca3f1b02b87"], "grouping_rule": "name index only; exact coordinates/levels/dimensions remain independent; no analytical name total", "analysis_method_version": "reh-uam-junctions-v3", "distinct_edge_neighbors": [[-23.576009721284525, -46.62676720816882, 1219.0, 305.0, 457.0], [-23.59282164368213, -46.64846381572834, 1219.0, 305.0, 457.0], [-23.593967358132343, -46.649936877164315, 1219.0, 305.0, 457.0]], "terminal_route_ids": [], "interior_route_ids": ["UAM001", "UAM003", "UAM024", "UAM036"], "terminal_only": false, "reh_reference": {"resource_id": "REH-WP-74ca2fc3f89b8b1a72f5", "label": "Ana Rosa", "horizontal_distance_m": 254.165829988039, "max_distance_m": 500.0, "match_method": "normalized_exact_name", "coordinates": [-46.63833333, -23.58194444]}, "capacity_eligible": true, "selection_reasons": [], "selection_rule": "uam_degree_at_least_3_and_reh_reference_within_500m_and_nonterminal_use", "name_all_position_count": 4, "source": {"file": "scenario_horizontal_3000ft_expanded_displaced.csv", "sha256": "22a7773a304d67de1faf665f6ab0dca4aa2634df0feb120361ec443d39310ff1"}}, "geometry": {"type": "Point", "coordinates": [-46.63672385660041, -23.58369056436034]}}, {"type": "Feature", "properties": {"resource_id": "UAM-WP-b5e4a5e00f0fb293afc0", "label": "AVENIDA_MORUMBI", "node_name": "AVENIDA_MORUMBI", "original_names": ["AVENIDA_MORUMBI"], "normalized_name": "AVENIDA_MORUMBI", "network": "UAM", "criterion": "uam_named_waypoint", "network_degree": 3, "altitude_m": 1219.0, "vertical_intervals_m": [[1066.5, 1371.5]], "altitude_status": "known_envelopes", "dimensions_m": [305.0, 457.0], "uam_route_ids": ["UAM013", "UAM063"], "reh_resource_ids": [], "uam_route_labels": ["SBSP-VP-005 (Parallel 1)", "VP-003-VP-005 (Parallel 1)"], "reh_labels": [], "status": "geometry_only_pending_recomputation", "method": "explicit_named_export_position", "name_group_id": "UAM:AVENIDA_MORUMBI", "name_position_count": 2, "name_position_ids": ["UAM-WP-b5e4a5e00f0fb293afc0", "UAM-WP-1dd073392f122fa825ed"], "grouping_rule": "name index only; exact coordinates/levels/dimensions remain independent; no analytical name total", "analysis_method_version": "reh-uam-junctions-v3", "distinct_edge_neighbors": [[-23.606354090644885, -46.75119116437716, 1219.0, 305.0, 457.0], [-23.61036994370059, -46.70079334234522, 1219.0, 305.0, 457.0], [-23.610516853220588, -46.69903042810522, 1219.0, 305.0, 457.0]], "terminal_route_ids": [], "interior_route_ids": ["UAM013", "UAM063"], "terminal_only": false, "reh_reference": {"resource_id": "REH-WP-66c5260ef599f42adcf4", "label": "Avenida Morumbi", "horizontal_distance_m": 254.19192906066306, "max_distance_m": 500.0, "match_method": "normalized_exact_name", "coordinates": [-46.71277778, -23.61166667]}, "capacity_eligible": true, "selection_reasons": [], "selection_rule": "uam_degree_at_least_3_and_reh_reference_within_500m_and_nonterminal_use", "name_all_position_count": 4, "source": {"file": "scenario_horizontal_3000ft_expanded_displaced.csv", "sha256": "22a7773a304d67de1faf665f6ab0dca4aa2634df0feb120361ec443d39310ff1"}}, "geometry": {"type": "Point", "coordinates": [-46.71255842051052, -23.609389520520164]}}, {"type": "Feature", "properties": {"resource_id": "UAM-WP-1dd073392f122fa825ed", "label": "AVENIDA_MORUMBI", "node_name": "AVENIDA_MORUMBI", "original_names": ["AVENIDA_MORUMBI"], "normalized_name": "AVENIDA_MORUMBI", "network": "UAM", "criterion": "uam_named_waypoint", "network_degree": 3, "altitude_m": 1219.0, "vertical_intervals_m": [[1066.5, 1371.5]], "altitude_status": "known_envelopes", "dimensions_m": [305.0, 457.0], "uam_route_ids": ["UAM014", "UAM064"], "reh_resource_ids": [], "uam_route_labels": ["SBSP-VP-005 (Parallel 2)", "VP-003-VP-005 (Parallel 2)"], "reh_labels": [], "status": "geometry_only_pending_recomputation", "method": "explicit_named_export_position", "name_group_id": "UAM:AVENIDA_MORUMBI", "name_position_count": 2, "name_position_ids": ["UAM-WP-b5e4a5e00f0fb293afc0", "UAM-WP-1dd073392f122fa825ed"], "grouping_rule": "name index only; exact coordinates/levels/dimensions remain independent; no analytical name total", "analysis_method_version": "reh-uam-junctions-v3", "distinct_edge_neighbors": [[-23.610868131577313, -46.75214216895624, 1219.0, 305.0, 457.0], [-23.615038702335013, -46.69985846078359, 1219.0, 305.0, 457.0], [-23.61518561185501, -46.698095546543584, 1219.0, 305.0, 457.0]], "terminal_route_ids": [], "interior_route_ids": ["UAM014", "UAM064"], "terminal_only": false, "reh_reference": {"resource_id": "REH-WP-66c5260ef599f42adcf4", "label": "Avenida Morumbi", "horizontal_distance_m": 254.19111668639533, "max_distance_m": 500.0, "match_method": "normalized_exact_name", "coordinates": [-46.71277778, -23.61166667]}, "capacity_eligible": true, "selection_reasons": [], "selection_rule": "uam_degree_at_least_3_and_reh_reference_within_500m_and_nonterminal_use", "name_all_position_count": 4, "source": {"file": "scenario_horizontal_3000ft_expanded_displaced.csv", "sha256": "22a7773a304d67de1faf665f6ab0dca4aa2634df0feb120361ec443d39310ff1"}}, "geometry": {"type": "Point", "coordinates": [-46.712997135045086, -23.613943812813236]}}, {"type": "Feature", "properties": {"resource_id": "UAM-WP-2198bcdb887510a1025a", "label": "CEBOLAO", "node_name": "CEBOLAO", "original_names": ["CEBOLAO"], "normalized_name": "CEBOLAO", "network": "UAM", "criterion": "uam_named_waypoint", "network_degree": 3, "altitude_m": 1219.0, "vertical_intervals_m": [[1066.5, 1371.5]], "altitude_status": "known_envelopes", "dimensions_m": [305.0, 457.0], "uam_route_ids": ["UAM046", "UAM052", "UAM072"], "reh_resource_ids": [], "uam_route_labels": ["VP-001-VP-003 (Parallel 2)", "VP-001-VP-006 (Parallel 2)", "VP-005-VP-006 (Parallel 2)"], "reh_labels": [], "status": "geometry_only_pending_recomputation", "method": "explicit_named_export_position", "name_group_id": "UAM:CEBOLAO", "name_position_count": 4, "name_position_ids": ["UAM-WP-2198bcdb887510a1025a", "UAM-WP-4936756086e784a288e0", "UAM-WP-124dc6c5f396b0543864", "UAM-WP-e9735b8c108e6225ee5e"], "grouping_rule": "name index only; exact coordinates/levels/dimensions remain independent; no analytical name total", "analysis_method_version": "reh-uam-junctions-v3", "distinct_edge_neighbors": [[-23.531514765733224, -46.78514040623323, 914.4, 305.0, 457.0], [-23.53284476902972, -46.74563799576516, 1219.0, 305.0, 457.0], [-23.532990942991656, -46.74559347868451, 1219.0, 305.0, 457.0]], "terminal_route_ids": ["UAM052", "UAM072"], "interior_route_ids": ["UAM046"], "terminal_only": false, "reh_reference": {"resource_id": "REH-WP-1c5fd6543fef6083f7e8", "label": "Cebolão", "horizontal_distance_m": 299.7491664838096, "max_distance_m": 500.0, "match_method": "normalized_exact_name", "coordinates": [-46.75027778, -23.5261111099999]}, "capacity_eligible": true, "selection_reasons": [], "selection_rule": "uam_degree_at_least_3_and_reh_reference_within_500m_and_nonterminal_use", "name_all_position_count": 8, "source": {"file": "scenario_horizontal_3000ft_expanded_displaced.csv", "sha256": "22a7773a304d67de1faf665f6ab0dca4aa2634df0feb120361ec443d39310ff1"}}, "geometry": {"type": "Point", "coordinates": [-46.748294870483576, -23.524120793908853]}}, {"type": "Feature", "properties": {"resource_id": "UAM-WP-4936756086e784a288e0", "label": "CEBOLAO", "node_name": "CEBOLAO", "original_names": ["CEBOLAO"], "normalized_name": "CEBOLAO", "network": "UAM", "criterion": "uam_named_waypoint", "network_degree": 3, "altitude_m": 1219.0, "vertical_intervals_m": [[1066.5, 1371.5]], "altitude_status": "known_envelopes", "dimensions_m": [305.0, 457.0], "uam_route_ids": ["UAM029", "UAM041", "UAM059", "UAM062", "UAM069"], "reh_resource_ids": [], "uam_route_labels": ["SBGR-VP-006 (Parallel 1)", "SBMT-VP-006 (Parallel 1)", "VP-002-VP-006 (Parallel 1)", "VP-003-VP-004 (Parallel 2)", "VP-004-VP-006 (Parallel 1)"], "reh_labels": [], "status": "geometry_only_pending_recomputation", "method": "explicit_named_export_position", "name_group_id": "UAM:CEBOLAO", "name_position_count": 4, "name_position_ids": ["UAM-WP-2198bcdb887510a1025a", "UAM-WP-4936756086e784a288e0", "UAM-WP-124dc6c5f396b0543864", "UAM-WP-e9735b8c108e6225ee5e"], "grouping_rule": "name index only; exact coordinates/levels/dimensions remain independent; no analytical name total", "analysis_method_version": "reh-uam-junctions-v3", "distinct_edge_neighbors": [[-23.51606374594118, -46.744986135177214, 1219.0, 305.0, 457.0], [-23.535109057008345, -46.750126521315494, 1219.0, 305.0, 457.0], [-23.535255230970282, -46.75008200423485, 1219.0, 305.0, 457.0]], "terminal_route_ids": ["UAM029", "UAM041", "UAM059", "UAM069"], "interior_route_ids": ["UAM062"], "terminal_only": false, "reh_reference": {"resource_id": "REH-WP-1c5fd6543fef6083f7e8", "label": "Cebolão", "horizontal_distance_m": 284.3235110522067, "max_distance_m": 500.0, "match_method": "normalized_exact_name", "coordinates": [-46.75027778, -23.5261111099999]}, "capacity_eligible": true, "selection_reasons": [], "selection_rule": "uam_degree_at_least_3_and_reh_reference_within_500m_and_nonterminal_use", "name_all_position_count": 8, "source": {"file": "scenario_horizontal_3000ft_expanded_displaced.csv", "sha256": "22a7773a304d67de1faf665f6ab0dca4aa2634df0feb120361ec443d39310ff1"}}, "geometry": {"type": "Point", "coordinates": [-46.75301536700669, -23.525623394111516]}}, {"type": "Feature", "properties": {"resource_id": "UAM-WP-124dc6c5f396b0543864", "label": "CEBOLAO", "node_name": "CEBOLAO", "original_names": ["CEBOLAO"], "normalized_name": "CEBOLAO", "network": "UAM", "criterion": "uam_named_waypoint", "network_degree": 3, "altitude_m": 1219.0, "vertical_intervals_m": [[1066.5, 1371.5]], "altitude_status": "known_envelopes", "dimensions_m": [305.0, 457.0], "uam_route_ids": ["UAM030", "UAM042", "UAM060", "UAM061", "UAM070"], "reh_resource_ids": [], "uam_route_labels": ["SBGR-VP-006 (Parallel 2)", "SBMT-VP-006 (Parallel 2)", "VP-002-VP-006 (Parallel 2)", "VP-003-VP-004 (Parallel 1)", "VP-004-VP-006 (Parallel 2)"], "reh_labels": [], "status": "geometry_only_pending_recomputation", "method": "explicit_named_export_position", "name_group_id": "UAM:CEBOLAO", "name_position_count": 4, "name_position_ids": ["UAM-WP-2198bcdb887510a1025a", "UAM-WP-4936756086e784a288e0", "UAM-WP-124dc6c5f396b0543864", "UAM-WP-e9735b8c108e6225ee5e"], "grouping_rule": "name index only; exact coordinates/levels/dimensions remain independent; no analytical name total", "analysis_method_version": "reh-uam-junctions-v3", "distinct_edge_neighbors": [[-23.520153648065616, -46.74212682564658, 1219.0, 305.0, 457.0], [-23.53284476902972, -46.74563799576516, 1219.0, 305.0, 457.0], [-23.532990942991656, -46.74559347868451, 1219.0, 305.0, 457.0]], "terminal_route_ids": ["UAM030", "UAM042", "UAM060", "UAM070"], "interior_route_ids": ["UAM061"], "terminal_only": false, "reh_reference": {"resource_id": "REH-WP-1c5fd6543fef6083f7e8", "label": "Cebolão", "horizontal_distance_m": 284.322987659041, "max_distance_m": 500.0, "match_method": "normalized_exact_name", "coordinates": [-46.75027778, -23.5261111099999]}, "capacity_eligible": true, "selection_reasons": [], "selection_rule": "uam_degree_at_least_3_and_reh_reference_within_500m_and_nonterminal_use", "name_all_position_count": 8, "source": {"file": "scenario_horizontal_3000ft_expanded_displaced.csv", "sha256": "22a7773a304d67de1faf665f6ab0dca4aa2634df0feb120361ec443d39310ff1"}}, "geometry": {"type": "Point", "coordinates": [-46.7475401885489, -23.526598828110682]}}, {"type": "Feature", "properties": {"resource_id": "UAM-WP-e9735b8c108e6225ee5e", "label": "CEBOLAO", "node_name": "CEBOLAO", "original_names": ["CEBOLAO"], "normalized_name": "CEBOLAO", "network": "UAM", "criterion": "uam_named_waypoint", "network_degree": 3, "altitude_m": 1219.0, "vertical_intervals_m": [[1066.5, 1371.5]], "altitude_status": "known_envelopes", "dimensions_m": [305.0, 457.0], "uam_route_ids": ["UAM045", "UAM051", "UAM071"], "reh_resource_ids": [], "uam_route_labels": ["VP-001-VP-003 (Parallel 1)", "VP-001-VP-006 (Parallel 1)", "VP-005-VP-006 (Parallel 1)"], "reh_labels": [], "status": "geometry_only_pending_recomputation", "method": "explicit_named_export_position", "name_group_id": "UAM:CEBOLAO", "name_position_count": 4, "name_position_ids": ["UAM-WP-2198bcdb887510a1025a", "UAM-WP-4936756086e784a288e0", "UAM-WP-124dc6c5f396b0543864", "UAM-WP-e9735b8c108e6225ee5e"], "grouping_rule": "name index only; exact coordinates/levels/dimensions remain independent; no analytical name total", "analysis_method_version": "reh-uam-junctions-v3", "distinct_edge_neighbors": [[-23.535109057008345, -46.750126521315494, 1219.0, 305.0, 457.0], [-23.535255230970282, -46.75008200423485, 1219.0, 305.0, 457.0], [-23.535910743800176, -46.786640075771494, 914.4, 305.0, 457.0]], "terminal_route_ids": ["UAM051", "UAM071"], "interior_route_ids": ["UAM045"], "terminal_only": false, "reh_reference": {"resource_id": "REH-WP-1c5fd6543fef6083f7e8", "label": "Cebolão", "horizontal_distance_m": 299.74698136104513, "max_distance_m": 500.0, "match_method": "normalized_exact_name", "coordinates": [-46.75027778, -23.5261111099999]}, "capacity_eligible": true, "selection_reasons": [], "selection_rule": "uam_degree_at_least_3_and_reh_reference_within_500m_and_nonterminal_use", "name_all_position_count": 8, "source": {"file": "scenario_horizontal_3000ft_expanded_displaced.csv", "sha256": "22a7773a304d67de1faf665f6ab0dca4aa2634df0feb120361ec443d39310ff1"}}, "geometry": {"type": "Point", "coordinates": [-46.75226068507202, -23.528101428313345]}}, {"type": "Feature", "properties": {"resource_id": "UAM-WP-e14f66247d65ce0caf2d", "label": "CEBOLINHA", "node_name": "CEBOLINHA", "original_names": ["CEBOLINHA"], "normalized_name": "CEBOLINHA", "network": "UAM", "criterion": "uam_named_waypoint", "network_degree": 3, "altitude_m": 1219.0, "vertical_intervals_m": [[1066.5, 1371.5]], "altitude_status": "known_envelopes", "dimensions_m": [305.0, 457.0], "uam_route_ids": ["UAM002", "UAM004", "UAM008"], "reh_resource_ids": [], "uam_route_labels": ["SBSP-SBGR (Parallel 2)", "SBSP-SBMT (Parallel 2)", "SBSP-VP-002 (Parallel 2)"], "reh_labels": [], "status": "geometry_only_pending_recomputation", "method": "explicit_named_export_position", "name_group_id": "UAM:CEBOLINHA", "name_position_count": 2, "name_position_ids": ["UAM-WP-e14f66247d65ce0caf2d", "UAM-WP-393c0f9e7a61aa5770f9"], "grouping_rule": "name index only; exact coordinates/levels/dimensions remain independent; no analytical name total", "analysis_method_version": "reh-uam-junctions-v3", "distinct_edge_neighbors": [[-23.58019832452846, -46.63994281006619, 1219.0, 305.0, 457.0], [-23.581615904174935, -46.64176541246878, 1219.0, 305.0, 457.0], [-23.607448592345182, -46.65524695988414, 1219.0, 305.0, 457.0]], "terminal_route_ids": [], "interior_route_ids": ["UAM002", "UAM004", "UAM008"], "terminal_only": false, "reh_reference": {"resource_id": "REH-WP-db16861257baeed3a737", "label": "Cebolinha", "horizontal_distance_m": 273.4884495334451, "max_distance_m": 500.0, "match_method": "normalized_exact_name", "coordinates": [-46.65083333, -23.5916666699999]}, "capacity_eligible": true, "selection_reasons": [], "selection_rule": "uam_degree_at_least_3_and_reh_reference_within_500m_and_nonterminal_use", "name_all_position_count": 8, "source": {"file": "scenario_horizontal_3000ft_expanded_displaced.csv", "sha256": "22a7773a304d67de1faf665f6ab0dca4aa2634df0feb120361ec443d39310ff1"}}, "geometry": {"type": "Point", "coordinates": [-46.653202850938264, -23.590511689651272]}}, {"type": "Feature", "properties": {"resource_id": "UAM-WP-393c0f9e7a61aa5770f9", "label": "CEBOLINHA", "node_name": "CEBOLINHA", "original_names": ["CEBOLINHA"], "normalized_name": "CEBOLINHA", "network": "UAM", "criterion": "uam_named_waypoint", "network_degree": 3, "altitude_m": 1219.0, "vertical_intervals_m": [[1066.5, 1371.5]], "altitude_status": "known_envelopes", "dimensions_m": [305.0, 457.0], "uam_route_ids": ["UAM001", "UAM003", "UAM007"], "reh_resource_ids": [], "uam_route_labels": ["SBSP-SBGR (Parallel 1)", "SBSP-SBMT (Parallel 1)", "SBSP-VP-002 (Parallel 1)"], "reh_labels": [], "status": "geometry_only_pending_recomputation", "method": "explicit_named_export_position", "name_group_id": "UAM:CEBOLINHA", "name_position_count": 2, "name_position_ids": ["UAM-WP-e14f66247d65ce0caf2d", "UAM-WP-393c0f9e7a61aa5770f9"], "grouping_rule": "name index only; exact coordinates/levels/dimensions remain independent; no analytical name total", "analysis_method_version": "reh-uam-junctions-v3", "distinct_edge_neighbors": [[-23.582272984713864, -46.63490125419782, 1219.0, 305.0, 457.0], [-23.58369056436034, -46.63672385660041, 1219.0, 305.0, 457.0], [-23.60810696321042, -46.65030859567146, 1219.0, 305.0, 457.0]], "terminal_route_ids": [], "interior_route_ids": ["UAM001", "UAM003", "UAM007"], "terminal_only": false, "reh_reference": {"resource_id": "REH-WP-db16861257baeed3a737", "label": "Cebolinha", "horizontal_distance_m": 273.48562497181223, "max_distance_m": 500.0, "match_method": "normalized_exact_name", "coordinates": [-46.65083333, -23.5916666699999]}, "capacity_eligible": true, "selection_reasons": [], "selection_rule": "uam_degree_at_least_3_and_reh_reference_within_500m_and_nonterminal_use", "name_all_position_count": 8, "source": {"file": "scenario_horizontal_3000ft_expanded_displaced.csv", "sha256": "22a7773a304d67de1faf665f6ab0dca4aa2634df0feb120361ec443d39310ff1"}}, "geometry": {"type": "Point", "coordinates": [-46.64846381572834, -23.59282164368213]}}, {"type": "Feature", "properties": {"resource_id": "UAM-WP-0ec737370a79beefc021", "label": "ITAU_CTO", "node_name": "ITAU_CTO", "original_names": ["ITAU_CTO"], "normalized_name": "ITAU_CTO", "network": "UAM", "criterion": "uam_named_waypoint", "network_degree": 3, "altitude_m": 1219.0, "vertical_intervals_m": [[1066.5, 1371.5]], "altitude_status": "known_envelopes", "dimensions_m": [305.0, 457.0], "uam_route_ids": ["UAM002", "UAM004", "UAM021", "UAM023", "UAM033", "UAM035"], "reh_resource_ids": [], "uam_route_labels": ["SBGR-VP-002 (Parallel 1)", "SBGR-VP-003 (Parallel 1)", "SBMT-VP-002 (Parallel 1)", "SBMT-VP-003 (Parallel 1)", "SBSP-SBGR (Parallel 2)", "SBSP-SBMT (Parallel 2)"], "reh_labels": [], "status": "geometry_only_pending_recomputation", "method": "explicit_named_export_position", "name_group_id": "UAM:ITAU_CTO", "name_position_count": 2, "name_position_ids": ["UAM-WP-0ec737370a79beefc021", "UAM-WP-d495f907fec1cc0132cc"], "grouping_rule": "name index only; exact coordinates/levels/dimensions remain independent; no analytical name total", "analysis_method_version": "reh-uam-junctions-v3", "distinct_edge_neighbors": [[-23.552624774559753, -46.61439946562285, 1219.0, 305.0, 457.0], [-23.57152171587711, -46.629391676867094, 1219.0, 305.0, 457.0], [-23.572879167604274, -46.630455014053375, 1219.0, 305.0, 457.0]], "terminal_route_ids": [], "interior_route_ids": ["UAM002", "UAM004", "UAM021", "UAM023", "UAM033", "UAM035"], "terminal_only": false, "reh_reference": {"resource_id": "REH-WP-7c15f8aaf3f9150f62e2", "label": "Itaú Cto", "horizontal_distance_m": 254.21034477887477, "max_distance_m": 500.0, "match_method": "normalized_exact_name", "coordinates": [-46.61555556, -23.55777778]}, "capacity_eligible": true, "selection_reasons": [], "selection_rule": "uam_degree_at_least_3_and_reh_reference_within_500m_and_nonterminal_use", "name_all_position_count": 2, "source": {"file": "scenario_horizontal_3000ft_expanded_displaced.csv", "sha256": "22a7773a304d67de1faf665f6ab0dca4aa2634df0feb120361ec443d39310ff1"}}, "geometry": {"type": "Point", "coordinates": [-46.61755958582767, -23.556416918805503]}}, {"type": "Feature", "properties": {"resource_id": "UAM-WP-d495f907fec1cc0132cc", "label": "ITAU_CTO", "node_name": "ITAU_CTO", "original_names": ["ITAU_CTO"], "normalized_name": "ITAU_CTO", "network": "UAM", "criterion": "uam_named_waypoint", "network_degree": 3, "altitude_m": 1219.0, "vertical_intervals_m": [[1066.5, 1371.5]], "altitude_status": "known_envelopes", "dimensions_m": [305.0, 457.0], "uam_route_ids": ["UAM001", "UAM003", "UAM022", "UAM024", "UAM034", "UAM036"], "reh_resource_ids": [], "uam_route_labels": ["SBGR-VP-002 (Parallel 2)", "SBGR-VP-003 (Parallel 2)", "SBMT-VP-002 (Parallel 2)", "SBMT-VP-003 (Parallel 2)", "SBSP-SBGR (Parallel 1)", "SBSP-SBMT (Parallel 1)"], "reh_labels": [], "status": "geometry_only_pending_recomputation", "method": "explicit_named_export_position", "name_group_id": "UAM:ITAU_CTO", "name_position_count": 2, "name_position_ids": ["UAM-WP-0ec737370a79beefc021", "UAM-WP-d495f907fec1cc0132cc"], "grouping_rule": "name index only; exact coordinates/levels/dimensions remain independent; no analytical name total", "analysis_method_version": "reh-uam-junctions-v3", "distinct_edge_neighbors": [[-23.552930780995844, -46.60837831215494, 1219.0, 305.0, 457.0], [-23.576009721284525, -46.62676720816882, 1219.0, 305.0, 457.0], [-23.577367173011687, -46.6278305453551, 1219.0, 305.0, 457.0]], "terminal_route_ids": [], "interior_route_ids": ["UAM001", "UAM003", "UAM022", "UAM024", "UAM034", "UAM036"], "terminal_only": false, "reh_reference": {"resource_id": "REH-WP-7c15f8aaf3f9150f62e2", "label": "Itaú Cto", "horizontal_distance_m": 254.20907885076946, "max_distance_m": 500.0, "match_method": "normalized_exact_name", "coordinates": [-46.61555556, -23.55777778]}, "capacity_eligible": true, "selection_reasons": [], "selection_rule": "uam_degree_at_least_3_and_reh_reference_within_500m_and_nonterminal_use", "name_all_position_count": 2, "source": {"file": "scenario_horizontal_3000ft_expanded_displaced.csv", "sha256": "22a7773a304d67de1faf665f6ab0dca4aa2634df0feb120361ec443d39310ff1"}}, "geometry": {"type": "Point", "coordinates": [-46.61355152528353, -23.5591386367501]}}, {"type": "Feature", "properties": {"resource_id": "UAM-WP-a5b7aa8e848cdc9b2125", "label": "PONTE_ESTAIADA", "node_name": "PONTE_ESTAIADA", "original_names": ["PONTE_ESTAIADA"], "normalized_name": "PONTE_ESTAIADA", "network": "UAM", "criterion": "uam_named_waypoint", "network_degree": 3, "altitude_m": 1219.0, "vertical_intervals_m": [[1066.5, 1371.5]], "altitude_status": "known_envelopes", "dimensions_m": [305.0, 457.0], "uam_route_ids": ["UAM005", "UAM013"], "reh_resource_ids": [], "uam_route_labels": ["SBSP-VP-001 (Parallel 1)", "SBSP-VP-005 (Parallel 1)"], "reh_labels": [], "status": "geometry_only_pending_recomputation", "method": "explicit_named_export_position", "name_group_id": "UAM:PONTE_ESTAIADA", "name_position_count": 2, "name_position_ids": ["UAM-WP-a5b7aa8e848cdc9b2125", "UAM-WP-9cd7c06653831ca34e5c"], "grouping_rule": "name index only; exact coordinates/levels/dimensions remain independent; no analytical name total", "analysis_method_version": "reh-uam-junctions-v3", "distinct_edge_neighbors": [[-23.609389520520164, -46.71255842051052, 1219.0, 305.0, 457.0], [-23.60946509000826, -46.71165158665334, 1219.0, 305.0, 457.0], [-23.613248832428837, -46.686955696062455, 1219.0, 305.0, 457.0]], "terminal_route_ids": [], "interior_route_ids": ["UAM005", "UAM013"], "terminal_only": false, "reh_reference": {"resource_id": "REH-WP-a144b575c10365d83328", "label": "Ponte Estaiada", "horizontal_distance_m": 254.917791536598, "max_distance_m": 500.0, "match_method": "normalized_exact_name", "coordinates": [-46.69944444, -23.6127777799999]}, "capacity_eligible": true, "selection_reasons": [], "selection_rule": "uam_degree_at_least_3_and_reh_reference_within_500m_and_nonterminal_use", "name_all_position_count": 6, "source": {"file": "scenario_horizontal_3000ft_expanded_displaced.csv", "sha256": "22a7773a304d67de1faf665f6ab0dca4aa2634df0feb120361ec443d39310ff1"}}, "geometry": {"type": "Point", "coordinates": [-46.69903042810522, -23.610516853220588]}}, {"type": "Feature", "properties": {"resource_id": "UAM-WP-9cd7c06653831ca34e5c", "label": "PONTE_ESTAIADA", "node_name": "PONTE_ESTAIADA", "original_names": ["PONTE_ESTAIADA"], "normalized_name": "PONTE_ESTAIADA", "network": "UAM", "criterion": "uam_named_waypoint", "network_degree": 3, "altitude_m": 1219.0, "vertical_intervals_m": [[1066.5, 1371.5]], "altitude_status": "known_envelopes", "dimensions_m": [305.0, 457.0], "uam_route_ids": ["UAM006", "UAM014"], "reh_resource_ids": [], "uam_route_labels": ["SBSP-VP-001 (Parallel 2)", "SBSP-VP-005 (Parallel 2)"], "reh_labels": [], "status": "geometry_only_pending_recomputation", "method": "explicit_named_export_position", "name_group_id": "UAM:PONTE_ESTAIADA", "name_position_count": 2, "name_position_ids": ["UAM-WP-a5b7aa8e848cdc9b2125", "UAM-WP-9cd7c06653831ca34e5c"], "grouping_rule": "name index only; exact coordinates/levels/dimensions remain independent; no analytical name total", "analysis_method_version": "reh-uam-junctions-v3", "distinct_edge_neighbors": [[-23.61386824332514, -46.713903968902265, 1219.0, 305.0, 457.0], [-23.613943812813236, -46.712997135045086, 1219.0, 305.0, 457.0], [-23.617431167571162, -46.68928430393754, 1219.0, 305.0, 457.0]], "terminal_route_ids": [], "interior_route_ids": ["UAM006", "UAM014"], "terminal_only": false, "reh_reference": {"resource_id": "REH-WP-a144b575c10365d83328", "label": "Ponte Estaiada", "horizontal_distance_m": 254.91733362783924, "max_distance_m": 500.0, "match_method": "normalized_exact_name", "coordinates": [-46.69944444, -23.6127777799999]}, "capacity_eligible": true, "selection_reasons": [], "selection_rule": "uam_degree_at_least_3_and_reh_reference_within_500m_and_nonterminal_use", "name_all_position_count": 6, "source": {"file": "scenario_horizontal_3000ft_expanded_displaced.csv", "sha256": "22a7773a304d67de1faf665f6ab0dca4aa2634df0feb120361ec443d39310ff1"}}, "geometry": {"type": "Point", "coordinates": [-46.69985846078359, -23.615038702335013]}}]}