{"type": "FeatureCollection", "features": [{"type": "Feature", "properties": {"method": "uam_buffer_official_reh_overlap", "geometry_dimension": "3D", "altitude_m": 1036.3200000000002, "altitude_min_m": 1036.3200000000002, "altitude_max_m": 1036.3200000000002, "uam_route_ids": ["UAM067"], "uam_route_labels": ["VP-004-VP-005 (Parallel 1)"], "reh_resource_ids": ["REH-175"], "reh_labels": ["CASTELO - trecho 1"], "resource_id": "XUAMREH001", "label": "Cruzamento UAM × REH 001", "criterion": "uam_reh_crossing", "network_degree": null}, "geometry": {"type": "Point", "coordinates": [-46.8329591731143, -23.507748668659346]}}, {"type": "Feature", "properties": {"method": "uam_buffer_official_reh_overlap", "geometry_dimension": "3D", "altitude_m": 1036.3200000000002, "altitude_min_m": 1036.3200000000002, "altitude_max_m": 1036.3200000000002, "uam_route_ids": ["UAM068"], "uam_route_labels": ["VP-004-VP-005 (Parallel 2)"], "reh_resource_ids": ["REH-175"], "reh_labels": ["CASTELO - trecho 1"], "resource_id": "XUAMREH002", "label": "Cruzamento UAM × REH 002", "criterion": "uam_reh_crossing", "network_degree": null}, "geometry": {"type": "Point", "coordinates": [-46.82799249183902, -23.508223166638402]}}, {"type": "Feature", "properties": {"method": "uam_buffer_official_reh_overlap", "geometry_dimension": "3D", "altitude_m": 975.36, "altitude_min_m": 975.36, "altitude_max_m": 975.36, "uam_route_ids": ["UAM028", "UAM040", "UAM058", "UAM071"], "uam_route_labels": ["SBGR-VP-005 (Parallel 2)", "SBMT-VP-005 (Parallel 2)", "VP-002-VP-005 (Parallel 2)", "VP-005-VP-006 (Parallel 1)"], "reh_resource_ids": ["REH-135"], "reh_labels": ["RODOANEL - trecho 4"], "resource_id": "XUAMREH003", "label": "Cruzamento UAM × REH 003", "criterion": "uam_reh_crossing", "network_degree": null}, "geometry": {"type": "Point", "coordinates": [-46.817572139651965, -23.52939920512159]}}, {"type": "Feature", "properties": {"method": "uam_buffer_official_reh_overlap", "geometry_dimension": "3D", "altitude_m": 975.36, "altitude_min_m": 975.36, "altitude_max_m": 975.36, "uam_route_ids": ["UAM006", "UAM020", "UAM032", "UAM043", "UAM045", "UAM051"], "uam_route_labels": ["SBSP-VP-001 (Parallel 2)", "SBGR-VP-001 (Parallel 2)", "SBMT-VP-001 (Parallel 2)", "VP-001-VP-002 (Parallel 1)", "VP-001-VP-003 (Parallel 1)", "VP-001-VP-006 (Parallel 1)"], "reh_resource_ids": ["REH-135"], "reh_labels": ["RODOANEL - trecho 4"], "resource_id": "XUAMREH004", "label": "Cruzamento UAM × REH 004", "criterion": "uam_reh_crossing", "network_degree": null}, "geometry": {"type": "Point", "coordinates": [-46.81752664926729, -23.52908716642037]}}, {"type": "Feature", "properties": {"method": "uam_buffer_official_reh_overlap", "geometry_dimension": "3D", "altitude_m": 975.36, "altitude_min_m": 975.36, "altitude_max_m": 975.36, "uam_route_ids": ["UAM005", "UAM019", "UAM031", "UAM044", "UAM046", "UAM052"], "uam_route_labels": ["SBSP-VP-001 (Parallel 1)", "SBGR-VP-001 (Parallel 1)", "SBMT-VP-001 (Parallel 1)", "VP-001-VP-002 (Parallel 2)", "VP-001-VP-003 (Parallel 2)", "VP-001-VP-006 (Parallel 2)"], "reh_resource_ids": ["REH-135"], "reh_labels": ["RODOANEL - trecho 4"], "resource_id": "XUAMREH005", "label": "Cruzamento UAM × REH 005", "criterion": "uam_reh_crossing", "network_degree": null}, "geometry": {"type": "Point", "coordinates": [-46.81689311953052, -23.52476013178882]}}, {"type": "Feature", "properties": {"method": "uam_buffer_official_reh_overlap", "geometry_dimension": "3D", "altitude_m": 975.36, "altitude_min_m": 975.36, "altitude_max_m": 975.36, "uam_route_ids": ["UAM027", "UAM039", "UAM057", "UAM072"], "uam_route_labels": ["SBGR-VP-005 (Parallel 1)", "SBMT-VP-005 (Parallel 1)", "VP-002-VP-005 (Parallel 1)", "VP-005-VP-006 (Parallel 2)"], "reh_resource_ids": ["REH-135"], "reh_labels": ["RODOANEL - trecho 4"], "resource_id": "XUAMREH006", "label": "Cruzamento UAM × REH 006", "criterion": "uam_reh_crossing", "network_degree": null}, "geometry": {"type": "Point", "coordinates": [-46.81684682966029, -23.524442660816746]}}, {"type": "Feature", "properties": {"method": "uam_buffer_official_reh_overlap", "geometry_dimension": "3D", "altitude_m": 1066.8000000000002, "altitude_min_m": 1036.3200000000002, "altitude_max_m": 1097.28, "uam_route_ids": ["UAM014", "UAM064"], "uam_route_labels": ["SBSP-VP-005 (Parallel 2)", "VP-003-VP-005 (Parallel 2)"], "reh_resource_ids": ["REH-155"], "reh_labels": ["RAPOSO - trecho 11"], "resource_id": "XUAMREH007", "label": "Cruzamento UAM × REH 007", "criterion": "uam_reh_crossing", "network_degree": null}, "geometry": {"type": "Point", "coordinates": [-46.81353096512953, -23.59194078652076]}}, {"type": "Feature", "properties": {"method": "uam_buffer_official_reh_overlap", "geometry_dimension": "3D", "altitude_m": 1081.8899999999999, "altitude_min_m": 1066.5, "altitude_max_m": 1097.28, "uam_route_ids": ["UAM014", "UAM064"], "uam_route_labels": ["SBSP-VP-005 (Parallel 2)", "VP-003-VP-005 (Parallel 2)"], "reh_resource_ids": ["REH-156"], "reh_labels": ["RODOANEL - trecho 3"], "resource_id": "XUAMREH008", "label": "Cruzamento UAM × REH 008", "criterion": "uam_reh_crossing", "network_degree": null}, "geometry": {"type": "Point", "coordinates": [-46.81135475714673, -23.594339775079746]}}, {"type": "Feature", "properties": {"method": "uam_buffer_official_reh_overlap", "geometry_dimension": "3D", "altitude_m": 1081.8899999999999, "altitude_min_m": 1066.5, "altitude_max_m": 1097.28, "uam_route_ids": ["UAM014", "UAM064"], "uam_route_labels": ["SBSP-VP-005 (Parallel 2)", "VP-003-VP-005 (Parallel 2)"], "reh_resource_ids": ["REH-127"], "reh_labels": ["MORUMBI - trecho 3"], "resource_id": "XUAMREH009", "label": "Cruzamento UAM × REH 009", "criterion": "uam_reh_crossing", "network_degree": null}, "geometry": {"type": "Point", "coordinates": [-46.786586339872684, -23.60037735294786]}}, {"type": "Feature", "properties": {"method": "uam_buffer_official_reh_overlap", "geometry_dimension": "3D", "altitude_m": 1081.8899999999999, "altitude_min_m": 1066.5, "altitude_max_m": 1097.28, "uam_route_ids": ["UAM013", "UAM063"], "uam_route_labels": ["SBSP-VP-005 (Parallel 1)", "VP-003-VP-005 (Parallel 1)"], "reh_resource_ids": ["REH-127"], "reh_labels": ["MORUMBI - trecho 3"], "resource_id": "XUAMREH010", "label": "Cruzamento UAM × REH 010", "criterion": "uam_reh_crossing", "network_degree": null}, "geometry": {"type": "Point", "coordinates": [-46.78092372499159, -23.599111511739473]}}, {"type": "Feature", "properties": {"method": "uam_buffer_official_reh_overlap", "geometry_dimension": "3D", "altitude_m": 1081.8899999999999, "altitude_min_m": 1066.5, "altitude_max_m": 1097.28, "uam_route_ids": ["UAM006"], "uam_route_labels": ["SBSP-VP-001 (Parallel 2)"], "reh_resource_ids": ["REH-129"], "reh_labels": ["OESTE - trecho 2"], "resource_id": "XUAMREH011", "label": "Cruzamento UAM × REH 011", "criterion": "uam_reh_crossing", "network_degree": null}, "geometry": {"type": "Point", "coordinates": [-46.75515135898698, -23.551309998543285]}}, {"type": "Feature", "properties": {"method": "uam_buffer_official_reh_overlap", "geometry_dimension": "3D", "altitude_m": 1036.3200000000002, "altitude_min_m": 1036.3200000000002, "altitude_max_m": 1036.3200000000002, "uam_route_ids": ["UAM005"], "uam_route_labels": ["SBSP-VP-001 (Parallel 1)"], "reh_resource_ids": ["REH-167"], "reh_labels": ["CASTELO - trecho 2"], "resource_id": "XUAMREH012", "label": "Cruzamento UAM × REH 012", "criterion": "uam_reh_crossing", "network_degree": null}, "geometry": {"type": "Point", "coordinates": [-46.75437731483486, -23.525568544258785]}}, {"type": "Feature", "properties": {"method": "uam_buffer_official_reh_overlap", "geometry_dimension": "3D", "altitude_m": 1036.3200000000002, "altitude_min_m": 1036.3200000000002, "altitude_max_m": 1036.3200000000002, "uam_route_ids": ["UAM046", "UAM052", "UAM072"], "uam_route_labels": ["VP-001-VP-003 (Parallel 2)", "VP-001-VP-006 (Parallel 2)", "VP-005-VP-006 (Parallel 2)"], "reh_resource_ids": ["REH-167"], "reh_labels": ["CASTELO - trecho 2"], "resource_id": "XUAMREH013", "label": "Cruzamento UAM × REH 013", "criterion": "uam_reh_crossing", "network_degree": null}, "geometry": {"type": "Point", "coordinates": [-46.7533088495644, -23.524579799117795]}}, {"type": "Feature", "properties": {"method": "uam_buffer_official_reh_overlap", "geometry_dimension": "3D", "altitude_m": 1081.8899999999999, "altitude_min_m": 1066.5, "altitude_max_m": 1097.28, "uam_route_ids": ["UAM013", "UAM063"], "uam_route_labels": ["SBSP-VP-005 (Parallel 1)", "VP-003-VP-005 (Parallel 1)"], "reh_resource_ids": ["REH-129"], "reh_labels": ["OESTE - trecho 2"], "resource_id": "XUAMREH014", "label": "Cruzamento UAM × REH 014", "criterion": "uam_reh_crossing", "network_degree": null}, "geometry": {"type": "Point", "coordinates": [-46.75165877683205, -23.606158087947897]}}, {"type": "Feature", "properties": {"method": "uam_buffer_official_reh_overlap", "geometry_dimension": "3D", "altitude_m": 1081.8899999999999, "altitude_min_m": 1066.5, "altitude_max_m": 1097.28, "uam_route_ids": ["UAM014", "UAM064"], "uam_route_labels": ["SBSP-VP-005 (Parallel 2)", "VP-003-VP-005 (Parallel 2)"], "reh_resource_ids": ["REH-184"], "reh_labels": ["OESTE - trecho 3"], "resource_id": "XUAMREH015", "label": "Cruzamento UAM × REH 015", "criterion": "uam_reh_crossing", "network_degree": null}, "geometry": {"type": "Point", "coordinates": [-46.75146609543743, -23.610853961184617]}}, {"type": "Feature", "properties": {"method": "uam_buffer_official_reh_overlap", "geometry_dimension": "3D", "altitude_m": 1005.84, "altitude_min_m": 1005.84, "altitude_max_m": 1005.84, "uam_route_ids": ["UAM029", "UAM041", "UAM051", "UAM059", "UAM069", "UAM071"], "uam_route_labels": ["SBGR-VP-006 (Parallel 1)", "SBMT-VP-006 (Parallel 1)", "VP-001-VP-006 (Parallel 1)", "VP-002-VP-006 (Parallel 1)", "VP-004-VP-006 (Parallel 1)", "VP-005-VP-006 (Parallel 1)"], "reh_resource_ids": ["REH-198"], "reh_labels": ["PINHEIROS - trecho 1"], "resource_id": "XUAMREH016", "label": "Cruzamento UAM × REH 016", "criterion": "uam_reh_crossing", "network_degree": null}, "geometry": {"type": "Point", "coordinates": [-46.74397829084542, -23.538606943555322]}}, {"type": "Feature", "properties": {"method": "uam_buffer_official_reh_overlap", "geometry_dimension": "3D", "altitude_m": 1005.84, "altitude_min_m": 1005.84, "altitude_max_m": 1005.84, "uam_route_ids": ["UAM030", "UAM042", "UAM060", "UAM070"], "uam_route_labels": ["SBGR-VP-006 (Parallel 2)", "SBMT-VP-006 (Parallel 2)", "VP-002-VP-006 (Parallel 2)", "VP-004-VP-006 (Parallel 2)"], "reh_resource_ids": ["REH-198"], "reh_labels": ["PINHEIROS - trecho 1"], "resource_id": "XUAMREH017", "label": "Cruzamento UAM × REH 017", "criterion": "uam_reh_crossing", "network_degree": null}, "geometry": {"type": "Point", "coordinates": [-46.74321939760633, -23.53638657640141]}}, {"type": "Feature", "properties": {"method": "uam_buffer_official_reh_overlap", "geometry_dimension": "3D", "altitude_m": 1005.84, "altitude_min_m": 1005.84, "altitude_max_m": 1005.84, "uam_route_ids": ["UAM062", "UAM069"], "uam_route_labels": ["VP-003-VP-004 (Parallel 2)", "VP-004-VP-006 (Parallel 1)"], "reh_resource_ids": ["REH-181"], "reh_labels": ["MARTE - trecho 1"], "resource_id": "XUAMREH018", "label": "Cruzamento UAM × REH 018", "criterion": "uam_reh_crossing", "network_degree": null}, "geometry": {"type": "Point", "coordinates": [-46.74256801100671, -23.518395971076906]}}, {"type": "Feature", "properties": {"method": "uam_buffer_official_reh_overlap", "geometry_dimension": "3D", "altitude_m": 1005.84, "altitude_min_m": 1005.84, "altitude_max_m": 1005.84, "uam_route_ids": ["UAM052", "UAM072"], "uam_route_labels": ["VP-001-VP-006 (Parallel 2)", "VP-005-VP-006 (Parallel 2)"], "reh_resource_ids": ["REH-198"], "reh_labels": ["PINHEIROS - trecho 1"], "resource_id": "XUAMREH019", "label": "Cruzamento UAM × REH 019", "criterion": "uam_reh_crossing", "network_degree": null}, "geometry": {"type": "Point", "coordinates": [-46.7424579931275, -23.537522076083363]}}, {"type": "Feature", "properties": {"method": "uam_buffer_official_reh_overlap", "geometry_dimension": "3D", "altitude_m": 1005.84, "altitude_min_m": 1005.84, "altitude_max_m": 1005.84, "uam_route_ids": ["UAM012", "UAM026", "UAM038", "UAM056"], "uam_route_labels": ["SBSP-VP-004 (Parallel 2)", "SBGR-VP-004 (Parallel 2)", "SBMT-VP-004 (Parallel 2)", "VP-002-VP-004 (Parallel 2)"], "reh_resource_ids": ["REH-181"], "reh_labels": ["MARTE - trecho 1"], "resource_id": "XUAMREH020", "label": "Cruzamento UAM × REH 020", "criterion": "uam_reh_crossing", "network_degree": null}, "geometry": {"type": "Point", "coordinates": [-46.7382529111411, -23.51801559902815]}}, {"type": "Feature", "properties": {"method": "uam_buffer_official_reh_overlap", "geometry_dimension": "3D", "altitude_m": 960.1200000000001, "altitude_min_m": 914.4000000000001, "altitude_max_m": 1005.84, "uam_route_ids": ["UAM016", "UAM066"], "uam_route_labels": ["SBSP-VP-006 (Parallel 2)", "VP-003-VP-006 (Parallel 2)"], "reh_resource_ids": ["REH-200"], "reh_labels": ["EXTERNO - trecho 1"], "resource_id": "XUAMREH021", "label": "Cruzamento UAM × REH 021", "criterion": "uam_reh_crossing", "network_degree": null}, "geometry": {"type": "Point", "coordinates": [-46.73639520953387, -23.54736600595645]}}, {"type": "Feature", "properties": {"method": "uam_buffer_official_reh_overlap", "geometry_dimension": "3D", "altitude_m": 1005.84, "altitude_min_m": 1005.84, "altitude_max_m": 1005.84, "uam_route_ids": ["UAM015", "UAM065"], "uam_route_labels": ["SBSP-VP-006 (Parallel 1)", "VP-003-VP-006 (Parallel 1)"], "reh_resource_ids": ["REH-198"], "reh_labels": ["PINHEIROS - trecho 1"], "resource_id": "XUAMREH022", "label": "Cruzamento UAM × REH 022", "criterion": "uam_reh_crossing", "network_degree": null}, "geometry": {"type": "Point", "coordinates": [-46.73569221948398, -23.54492364320313]}}, {"type": "Feature", "properties": {"method": "uam_buffer_official_reh_overlap", "geometry_dimension": "3D", "altitude_m": 953.8536696531238, "altitude_min_m": 914.4000000000001, "altitude_max_m": 993.2997838985713, "uam_route_ids": ["UAM015", "UAM065"], "uam_route_labels": ["SBSP-VP-006 (Parallel 1)", "VP-003-VP-006 (Parallel 1)"], "reh_resource_ids": ["REH-200"], "reh_labels": ["EXTERNO - trecho 1"], "resource_id": "XUAMREH023", "label": "Cruzamento UAM × REH 023", "criterion": "uam_reh_crossing", "network_degree": null}, "geometry": {"type": "Point", "coordinates": [-46.73530258979139, -23.546804572765158]}}, {"type": "Feature", "properties": {"method": "uam_buffer_official_reh_overlap", "geometry_dimension": "3D", "altitude_m": 1081.8899999999999, "altitude_min_m": 1066.5, "altitude_max_m": 1097.28, "uam_route_ids": ["UAM014", "UAM064"], "uam_route_labels": ["SBSP-VP-005 (Parallel 2)", "VP-003-VP-005 (Parallel 2)"], "reh_resource_ids": ["REH-203"], "reh_labels": ["MORUMBI - trecho 2"], "resource_id": "XUAMREH024", "label": "Cruzamento UAM × REH 024", "criterion": "uam_reh_crossing", "network_degree": null}, "geometry": {"type": "Point", "coordinates": [-46.7350012042358, -23.611375251670935]}}, {"type": "Feature", "properties": {"method": "uam_buffer_official_reh_overlap", "geometry_dimension": "3D", "altitude_m": 1005.84, "altitude_min_m": 1005.84, "altitude_max_m": 1005.84, "uam_route_ids": ["UAM011", "UAM025", "UAM037", "UAM055"], "uam_route_labels": ["SBSP-VP-004 (Parallel 1)", "SBGR-VP-004 (Parallel 1)", "SBMT-VP-004 (Parallel 1)", "VP-002-VP-004 (Parallel 1)"], "reh_resource_ids": ["REH-181"], "reh_labels": ["MARTE - trecho 1"], "resource_id": "XUAMREH025", "label": "Cruzamento UAM × REH 025", "criterion": "uam_reh_crossing", "network_degree": null}, "geometry": {"type": "Point", "coordinates": [-46.73455784831051, -23.515109439612967]}}, {"type": "Feature", "properties": {"method": "uam_buffer_official_reh_overlap", "geometry_dimension": "3D", "altitude_m": 1081.8899999999999, "altitude_min_m": 1066.5, "altitude_max_m": 1097.28, "uam_route_ids": ["UAM013", "UAM063"], "uam_route_labels": ["SBSP-VP-005 (Parallel 1)", "VP-003-VP-005 (Parallel 1)"], "reh_resource_ids": ["REH-203"], "reh_labels": ["MORUMBI - trecho 2"], "resource_id": "XUAMREH026", "label": "Cruzamento UAM × REH 026", "criterion": "uam_reh_crossing", "network_degree": null}, "geometry": {"type": "Point", "coordinates": [-46.732732167671394, -23.608843875531957]}}, {"type": "Feature", "properties": {"method": "uam_buffer_official_reh_overlap", "geometry_dimension": "3D", "altitude_m": 975.36, "altitude_min_m": 975.36, "altitude_max_m": 975.36, "uam_route_ids": ["UAM061", "UAM070"], "uam_route_labels": ["VP-003-VP-004 (Parallel 1)", "VP-004-VP-006 (Parallel 2)"], "reh_resource_ids": ["REH-165"], "reh_labels": ["ANHANGUERA SUL - trecho 1"], "resource_id": "XUAMREH027", "label": "Cruzamento UAM × REH 027", "criterion": "uam_reh_crossing", "network_degree": null}, "geometry": {"type": "Point", "coordinates": [-46.726723850672045, -23.514054899958264]}}, {"type": "Feature", "properties": {"method": "uam_buffer_official_reh_overlap", "geometry_dimension": "3D", "altitude_m": 1081.8899999999999, "altitude_min_m": 1066.5, "altitude_max_m": 1097.28, "uam_route_ids": ["UAM006"], "uam_route_labels": ["SBSP-VP-001 (Parallel 2)"], "reh_resource_ids": ["REH-203"], "reh_labels": ["MORUMBI - trecho 2"], "resource_id": "XUAMREH028", "label": "Cruzamento UAM × REH 028", "criterion": "uam_reh_crossing", "network_degree": null}, "geometry": {"type": "Point", "coordinates": [-46.71570068121483, -23.611397970163665]}}, {"type": "Feature", "properties": {"method": "uam_buffer_official_reh_overlap", "geometry_dimension": "3D", "altitude_m": 1066.65, "altitude_min_m": 1066.5, "altitude_max_m": 1066.8, "uam_route_ids": ["UAM014"], "uam_route_labels": ["SBSP-VP-005 (Parallel 2)"], "reh_resource_ids": ["REH-204"], "reh_labels": ["MORUMBI - trecho 1"], "resource_id": "XUAMREH029", "label": "Cruzamento UAM × REH 029", "criterion": "uam_reh_crossing", "network_degree": null}, "geometry": {"type": "Point", "coordinates": [-46.708582576571175, -23.612599208788925]}}, {"type": "Feature", "properties": {"method": "uam_buffer_official_reh_overlap", "geometry_dimension": "3D", "altitude_m": 1066.65, "altitude_min_m": 1066.5, "altitude_max_m": 1066.8, "uam_route_ids": ["UAM006", "UAM064"], "uam_route_labels": ["SBSP-VP-001 (Parallel 2)", "VP-003-VP-005 (Parallel 2)"], "reh_resource_ids": ["REH-204"], "reh_labels": ["MORUMBI - trecho 1"], "resource_id": "XUAMREH030", "label": "Cruzamento UAM × REH 030", "criterion": "uam_reh_crossing", "network_degree": null}, "geometry": {"type": "Point", "coordinates": [-46.70773960938346, -23.612763990761376]}}, {"type": "Feature", "properties": {"method": "uam_buffer_official_reh_overlap", "geometry_dimension": "3D", "altitude_m": 1066.65, "altitude_min_m": 1066.5, "altitude_max_m": 1066.8, "uam_route_ids": ["UAM005"], "uam_route_labels": ["SBSP-VP-001 (Parallel 1)"], "reh_resource_ids": ["REH-204"], "reh_labels": ["MORUMBI - trecho 1"], "resource_id": "XUAMREH031", "label": "Cruzamento UAM × REH 031", "criterion": "uam_reh_crossing", "network_degree": null}, "geometry": {"type": "Point", "coordinates": [-46.70746402773739, -23.611550190365055]}}, {"type": "Feature", "properties": {"method": "uam_buffer_official_reh_overlap", "geometry_dimension": "3D", "altitude_m": 1066.65, "altitude_min_m": 1066.5, "altitude_max_m": 1066.8, "uam_route_ids": ["UAM013"], "uam_route_labels": ["SBSP-VP-005 (Parallel 1)"], "reh_resource_ids": ["REH-204"], "reh_labels": ["MORUMBI - trecho 1"], "resource_id": "XUAMREH032", "label": "Cruzamento UAM × REH 032", "criterion": "uam_reh_crossing", "network_degree": null}, "geometry": {"type": "Point", "coordinates": [-46.706194188631684, -23.611641354291702]}}, {"type": "Feature", "properties": {"method": "uam_buffer_official_reh_overlap", "geometry_dimension": "3D", "altitude_m": 1066.65, "altitude_min_m": 1066.5, "altitude_max_m": 1066.8, "uam_route_ids": ["UAM063"], "uam_route_labels": ["VP-003-VP-005 (Parallel 1)"], "reh_resource_ids": ["REH-204"], "reh_labels": ["MORUMBI - trecho 1"], "resource_id": "XUAMREH033", "label": "Cruzamento UAM × REH 033", "criterion": "uam_reh_crossing", "network_degree": null}, "geometry": {"type": "Point", "coordinates": [-46.70497560667669, -23.611693435361]}}, {"type": "Feature", "properties": {"method": "uam_buffer_official_reh_overlap", "geometry_dimension": "3D", "altitude_m": 1066.65, "altitude_min_m": 1066.5, "altitude_max_m": 1066.8, "uam_route_ids": ["UAM016"], "uam_route_labels": ["SBSP-VP-006 (Parallel 2)"], "reh_resource_ids": ["REH-204"], "reh_labels": ["MORUMBI - trecho 1"], "resource_id": "XUAMREH034", "label": "Cruzamento UAM × REH 034", "criterion": "uam_reh_crossing", "network_degree": null}, "geometry": {"type": "Point", "coordinates": [-46.701270116014804, -23.612699209237856]}}, {"type": "Feature", "properties": {"method": "uam_buffer_official_reh_overlap", "geometry_dimension": "3D", "altitude_m": 1005.84, "altitude_min_m": 1005.84, "altitude_max_m": 1005.84, "uam_route_ids": ["UAM063"], "uam_route_labels": ["VP-003-VP-005 (Parallel 1)"], "reh_resource_ids": ["REH-201"], "reh_labels": ["PINHEIROS - trecho 2"], "resource_id": "XUAMREH035", "label": "Cruzamento UAM × REH 035", "criterion": "uam_reh_crossing", "network_degree": null}, "geometry": {"type": "Point", "coordinates": [-46.69770020170488, -23.606858335822476]}}, {"type": "Feature", "properties": {"method": "uam_buffer_official_reh_overlap", "geometry_dimension": "3D", "altitude_m": 1034.1961159440584, "altitude_min_m": 1032.0722318881164, "altitude_max_m": 1036.3200000000002, "uam_route_ids": ["UAM064"], "uam_route_labels": ["VP-003-VP-005 (Parallel 2)"], "reh_resource_ids": ["REH-141"], "reh_labels": ["ESPRAIADA - trecho 1"], "resource_id": "XUAMREH036", "label": "Cruzamento UAM × REH 036", "criterion": "uam_reh_crossing", "network_degree": null}, "geometry": {"type": "Point", "coordinates": [-46.69757502277295, -23.613195941670394]}}, {"type": "Feature", "properties": {"method": "uam_buffer_official_reh_overlap", "geometry_dimension": "3D", "altitude_m": 1034.3172575530384, "altitude_min_m": 1032.3178432604138, "altitude_max_m": 1036.3200000000002, "uam_route_ids": ["UAM007", "UAM054"], "uam_route_labels": ["SBSP-VP-002 (Parallel 1)", "VP-002-VP-003 (Parallel 2)"], "reh_resource_ids": ["REH-196"], "reh_labels": ["ACLIMAÇÃO - trecho 2"], "resource_id": "XUAMREH037", "label": "Cruzamento UAM × REH 037", "criterion": "uam_reh_crossing", "network_degree": null}, "geometry": {"type": "Point", "coordinates": [-46.6369966574914, -23.581283975896312]}}, {"type": "Feature", "properties": {"method": "uam_buffer_official_reh_overlap", "geometry_dimension": "3D", "altitude_m": 1032.9326400277964, "altitude_min_m": 1029.545280055593, "altitude_max_m": 1036.3200000000002, "uam_route_ids": ["UAM022", "UAM034"], "uam_route_labels": ["SBGR-VP-002 (Parallel 2)", "SBMT-VP-002 (Parallel 2)"], "reh_resource_ids": ["REH-196"], "reh_labels": ["ACLIMAÇÃO - trecho 2"], "resource_id": "XUAMREH038", "label": "Cruzamento UAM × REH 038", "criterion": "uam_reh_crossing", "network_degree": null}, "geometry": {"type": "Point", "coordinates": [-46.62970722266726, -23.575679144046994]}}, {"type": "Feature", "properties": {"method": "uam_buffer_official_reh_overlap", "geometry_dimension": "3D", "altitude_m": 1005.84, "altitude_min_m": 1005.84, "altitude_max_m": 1005.84, "uam_route_ids": ["UAM018"], "uam_route_labels": ["SBGR-SBMT (Parallel 2)"], "reh_resource_ids": ["REH-130"], "reh_labels": ["RADIAL - trecho 1"], "resource_id": "XUAMREH039", "label": "Cruzamento UAM × REH 039", "criterion": "uam_reh_crossing", "network_degree": null}, "geometry": {"type": "Point", "coordinates": [-46.60709499132373, -23.54272604596319]}}, {"type": "Feature", "properties": {"method": "uam_buffer_official_reh_overlap", "geometry_dimension": "3D", "altitude_m": 1005.84, "altitude_min_m": 1005.84, "altitude_max_m": 1005.84, "uam_route_ids": ["UAM020", "UAM026", "UAM028", "UAM030"], "uam_route_labels": ["SBGR-VP-001 (Parallel 2)", "SBGR-VP-004 (Parallel 2)", "SBGR-VP-005 (Parallel 2)", "SBGR-VP-006 (Parallel 2)"], "reh_resource_ids": ["REH-130"], "reh_labels": ["RADIAL - trecho 1"], "resource_id": "XUAMREH040", "label": "Cruzamento UAM × REH 040", "criterion": "uam_reh_crossing", "network_degree": null}, "geometry": {"type": "Point", "coordinates": [-46.60660014654001, -23.542635073452516]}}, {"type": "Feature", "properties": {"method": "uam_buffer_official_reh_overlap", "geometry_dimension": "3D", "altitude_m": 1005.84, "altitude_min_m": 1005.84, "altitude_max_m": 1005.84, "uam_route_ids": ["UAM001", "UAM022", "UAM024"], "uam_route_labels": ["SBSP-SBGR (Parallel 1)", "SBGR-VP-002 (Parallel 2)", "SBGR-VP-003 (Parallel 2)"], "reh_resource_ids": ["REH-130"], "reh_labels": ["RADIAL - trecho 1"], "resource_id": "XUAMREH041", "label": "Cruzamento UAM × REH 041", "criterion": "uam_reh_crossing", "network_degree": null}, "geometry": {"type": "Point", "coordinates": [-46.604923183706596, -23.54266838564232]}}, {"type": "Feature", "properties": {"method": "uam_buffer_official_reh_overlap", "geometry_dimension": "3D", "altitude_m": 944.88, "altitude_min_m": 944.88, "altitude_max_m": 944.88, "uam_route_ids": ["UAM001", "UAM018", "UAM020", "UAM022", "UAM024", "UAM026", "UAM028", "UAM030"], "uam_route_labels": ["SBSP-SBGR (Parallel 1)", "SBGR-SBMT (Parallel 2)", "SBGR-VP-001 (Parallel 2)", "SBGR-VP-002 (Parallel 2)", "SBGR-VP-003 (Parallel 2)", "SBGR-VP-004 (Parallel 2)", "SBGR-VP-005 (Parallel 2)", "SBGR-VP-006 (Parallel 2)"], "reh_resource_ids": ["REH-209"], "reh_labels": ["FERNÃO - trecho 1"], "resource_id": "XUAMREH042", "label": "Cruzamento UAM × REH 042", "criterion": "uam_reh_crossing", "network_degree": null}, "geometry": {"type": "Point", "coordinates": [-46.560596399815815, -23.51487143285906]}}, {"type": "Feature", "properties": {"method": "uam_buffer_official_reh_overlap", "geometry_dimension": "3D", "altitude_m": 944.88, "altitude_min_m": 944.88, "altitude_max_m": 944.88, "uam_route_ids": ["UAM002", "UAM017", "UAM019", "UAM021", "UAM023", "UAM025", "UAM027", "UAM029"], "uam_route_labels": ["SBSP-SBGR (Parallel 2)", "SBGR-SBMT (Parallel 1)", "SBGR-VP-001 (Parallel 1)", "SBGR-VP-002 (Parallel 1)", "SBGR-VP-003 (Parallel 1)", "SBGR-VP-004 (Parallel 1)", "SBGR-VP-005 (Parallel 1)", "SBGR-VP-006 (Parallel 1)"], "reh_resource_ids": ["REH-209"], "reh_labels": ["FERNÃO - trecho 1"], "resource_id": "XUAMREH043", "label": "Cruzamento UAM × REH 043", "criterion": "uam_reh_crossing", "network_degree": null}, "geometry": {"type": "Point", "coordinates": [-46.55954122825937, -23.506044065323877]}}]}